name	id	iso3166_1_alpha2	iso3166_1_shortname	fips10_4	capital	fifa_code	iso_numeric	iso_alpha_3	administrative_divisions	currency_used	official_language	gdp_nominal	gdp_nominal_per_capita	internet_tld	languages_spoken	form_of_government	national_anthem	currency_formerly_used	calling_code
Austrian Empire	/m/01nhhz				Vienna														
Chile	/m/01p1v		CHILE	CI	Santiago				Cachapoal Province,Malleco,Colchagua Province,Cauquenes Province,Arauco Province,Antofagasta Region,Linares Province,Los Lagos Region,Coyhaique Province,Atacama Region,Parinacota Province,Bío-Bío Region,El Loa Province,Llanquihue Province,Iquique Province,Coquimbo Region,Talagante Province,Huasco Province,Melipilla Province,Arica Province,Araucania,Santiago Metropolitan Region,Elqui Province,Aysen Region,Valdivia Province,Chiloé Province,General Carrera Province,Aysén Province,Chacabuco Province,Petorca Province,O'Higgins Region,Valparaíso Region,Palena Province,Easter Island,Magallanes y la Antártica Chilena Region,Quillota Province,Ranco Province,Talca Province,Choapa Province,Maule Region,Cardenal Caro Province,Tocopilla Province,Maipo Province,San Antonio Province,Antofagasta Province,San Felipe de Aconcagua Province,Magallanes Province,Tarapacá Region,Osorno Province,El Tamarugal Province	Chilean peso,Unidad de Fomento	Spanish Language,Chilean Spanish,German Language,English Language,Languages of Chile,Mapudungun Language			cl	Spanish Language,Puquina Language	Republic,Presidential system,Representative democracy	/m/045m7c1	Chilean escudo	56
Laos	/m/04hhv		LAO PEOPLE'S DEMOCRATIC REPUBLIC	LA	Vientiane				Xaisomboun,Phongsali Province,Champasak Province,Xaignabouli Province,Bolikhamxai,Louang Namtha Province,Xekong Province,Xiangkhoang Province,Vientiane Province,Houaphan,Bokeo Province,Savannakhet Province,Attapu Province,Oudomxai Province,Vientiane,Salavan Province,Louangphabang Province,Khammouan	Lao kip	French Language,Lao Language			la	English Language,French Language,Lao Language	Single-party state,Socialist Republic,Socialist state,Communist state	/m/048z_q2		856
Liberia	/m/04hzj		LIBERIA	LI	Monrovia				Grand Gedeh County,River Cess County,Grand Kru County,Gbarpolu County,Bong County,Grand Bassa County,Nimba County,Margibi County,Lofa County,Bomi County,Maryland County,Grand Cape Mount County,River Gee County,Sinoe County,Montserrado County	Liberian dollar	English Language			lr	English Language	Republic,Presidential system			
Kingdom of Hungary	/m/02rnb5c				Budapest					Hungarian korona									
Qatar	/m/0697s		QATAR	QA	Doha				Al Jumaliyah,Doha,Al Khawr,Umm Salal,Madinat ash Shamal,Al Wakrah	Qatari riyal	Arabic Language			qa	Arabic Language	Constitutional monarchy,Monarchy,Emirate,Absolute monarchy		Indian rupee	
East Asia	/m/02qnk																		
Electorate of Hanover	/m/03nlzvh																		
Grenada	/m/035yg		GRENADA	GJ	St. George's				Saint Patrick Parish,Saint David Parish,Saint Andrew Parish,Saint George Parish,Saint Mark Parish,Saint John Parish	East Caribbean dollar	English Language			gd	English Language	Parliamentary system,Constitutional monarchy		UK £	
Taiwan	/m/07dv8				Taipei						Standard Mandarin				Taiwanese Mandarin,Chinese, Hakka Language,Taiwanese	Semi-presidential system			
Ottoman Empire	/m/05kyr				Bursa,Söğüt,Istanbul,Edirne,Constantinople												/m/04k6v2s	Kuruş,Akçe,Turkish lira	
Barcelona	/m/01f62																		
Costa Rica	/m/01p8s		COSTA RICA	CS	San José				Limón Province,Puntarenas Province,Guanacaste Province,Alajuela Province,Cartago Province,San José Province,Vásquez de Coronado,Heredia Province	Costa Rican colón	Spanish Language			cr	Spanish Language	Constitutional democracy,Republic,Presidential system			
Grand Duchy of Poznań	/m/0219hq																		
Kingdom of Serbia	/m/025scy1				Belgrade														
Cayman Islands	/m/01nty		CAYMAN ISLANDS	CJ	George Town,George Town, Cayman Islands					Cayman Islands dollar	English Language			ky	English Language				
Faroe Islands	/m/02w9s			FO	Tórshavn				Faroe Islands	Faroese króna,Danish krone	Faroese,Danish Language			fo					
Byzantine Empire	/m/017cw				Constantinople														
Tibet	/m/07rj5																		
Ukraine	/m/07t21		UKRAINE	UP	Kiev				Amvrosiivskyi Raion,Sosnyts’kyi Raion,Borodianskyi Raion,Berezivs’kyi  Raion,Gholoprystans’kyi  Raion,Velykomykhailivs’kyi  Raion,Manevychi Raion,Bobrynets’kyi Raion,Veselivs’kyi Raion,Tarascha Raion,Korostyshivs’kyi Raion,Berezne Raion,Oleksandrivs’kyi Raion,Iasynuvats’kyi Raion,Chornomorske Raion,Pyriatyns’kyi Raion,Korops’kyi Raion,Rozdolne Raion,Svaliava Raion,Krasnoperekops’ka mis’krada Raion,Man’kivs’kyi  Raion,Demydivka Raion,Rozhniativskyi Raion,Liuboml Raion,Zalishchytskyi Raion,Brovarskyi Raion,Kremenetskyi Raion,Kirovohrad Oblast,Makarivskyi Raion,Soviets’kyi Raion,Kiev,Zboriv Raion,Chortkiv Raion,Novoukrains’kyi Raion,Uzhhorodskyi Raion,Lozova Raion,Sofiivs’kyi Raion,Novohrad-Volyns’kyi Raion,Krolevets’kyi Raion,Hoshcha Raion,Bohuslavskyi Raion,Іziaslavs’kyi Raion,Talalaivs’kyi Raion,Svativs’kyi Raion,Busk Raion,Sokal Raion,Izmailsky Raion,Novosanzhars’kyi Raion,Snihurivs’kyi Raion,Lysianskyi Raion,Narodyts’kyi Raion,Schors’kyi Raion,Zaporizhia Oblast,Slov'ians’kyi Raion,Zgurivskyi Raion,Seredyno-Buds’kyi Raion,Kakhovs’kyi  Raion,Khmil’nyts’kyi Raion,Skole Raion,Mizhhiria Raion,Kazankivs’kyi Raion,Oleksandrivs’kyi  Raion,Frunzivs’kyi  Raion,Tomashpil’s’kyi Raion,Borshchiv Raion,Kelmentsi Raion,Horodots’kyi Raion,Mykhailivs’kyi Raion,Zhytomyr Oblast,Chuhuivs’kyi Raion,Іchnians’kyi  Raion,Mlyniv Raion,Kovel Raion,Ratne Raion,Karlivs’kyi Raion,Pidvolochysk Raion,Rokytnianskyi Raion,Kherson Oblast,Novovodolaz’kyi Raion,Bashtans’kyi Raion,Shyriaivs’kyi Raion,Volyn Oblast,Rokytne Raion, Rivne Oblast,Skadovs’kyi Raion,Starosyniavs’kyi  Raion,Kolómats’kyi Raion,Mohyliv-Podil’s’kyi Raion,Kyievo-Sviatoshyns’kyi Raion,Novoaidars’kyi Raion,Nedryhailivs’kyi Raion,Bilohirs’kyi Raion,Sarats’kyi Raion,Ternopil Raion,Dubno Raion,Skvyrs’kyi Raion,Kam’ians’kyi  Raion,Zolochiv Raion,Ustynivs’kyi Raion,Beryslavs’kyi Raion,Novopskovs’kyi Raion,Kharkiv Oblast,Novhorod-Sivers’kyi Raion,Brats’kyi Raion,Vradiivs’kyi Raion,Mens’kyi Raion,Chechel’nyts’kyi Raion,Reshetylivs’kyi Raion,Solonians’kyi Raion,Dubrovytsia Raion,Svitlovods’kyi Raion,Ivano-Frankivsk Oblast,Romens’kyi Raion,Polohivs’kyi Raion,Novomykolaivs’kyi Raion,Kobeliatskyi Raion,Khrystynivs’kyi  Raion,Kotelevs’kyi Raion,Sharhorods’kyi Raion,Tlumatskyi Raion,Kodyms’kyi Raion,Volodymyrets Raion,Semenivs’kyi Raion,Olevs’kyi Raion,Bilotserkivs’kyi  Raion,Okhtyrs’kyi Raion,Іllinets’kyi Raion,Derhachivs’kyi Raion,Prymors’kyi Raion,Bereznehuvats’kyi Raion,Brodivskyi Raion,Lyubeshiv Raion,Tsarychans’kyi Raion,Drabivs’kyi Raion,Stavyschens’kyi Raion,Brusylivskyi Raion,Velykyy Bereznyi Raion,Rakhiv Raion,Velykoburluts’kyi Raion,Sums’kyi Raion,Troits’kyi Raion,Smilians’kyi  Raion,Poltava Oblast,Dzhankoy Raion,Lypovodolyns’kyi Raion,Kotovs’kyi  Raion,Cherkas’kyi Raion,Іvanivs’kyi Raion,Tsyurupyns’kyi  Raion,Kaluskyi Raion,Zhytomyrs’kyi Raion,Biliaivs’kyi  Raion,Vasyl’kivs’kyi  Raion,Synel’nykivs’kyi Raion,Chervonoarmiis’kyi Raion,Blyzniukivs’kyi Raion,Pryluts’kyi Raion,Berezhanskyi Raion,Mahdalynivs’kyi Raion,Chemerovets’kyi  Raion,Volodars’kyi Raion,Berdychivs’kyi Raion,/m/0cnlpkj,Tal’nivs’kyi  Raion,Krasnohrads’kyi Raion,/m/0cnlhww,Mukachivskyi Raion,Vasylivs’kyi Raion,Trostianets’kyi Raion,/m/0cncyv3,Sumy Oblast,Monastyryschens’kyi  Raion,Mykolaivs’kyi Raion,Chornukhynskyi Raion,Nemyrivs’kyi Raion,Horokhiv Raion,Hlukhivs’kyi Raion,Lypovets’kyi Raion,Cherkasy Oblast,Orikhivs’kyi Raion,Berehove Raion,Reniyskyi Raion,Mar'ins’kyi  Raion,Mezhivs’kyi Raion,Stara Vyzhivka Raion,Ghaivorons’kyi  Raion,Tarutynskyi Raion,Petrivs’kyi  Raion,Yavoriv Raion,Cherniakhivs’kyi Raion,Dnipropetrovs’kyi Raion,Dolyns’kyi Raion,Irshavskyi Raion,Staryi Sambir Raion,Tomakivs’kyi Raion,Novomoskovs’kyi Raion,Romanivs’kyi Raion,Rusanivka,Kaharlytskyi Raion,Haisyns’kyi Raion,Bilokurakyns’kyi Raion,Antratsytivs’kyi Raion,Mykolaiv Oblast,Kehychivs’kyi Raion,Novobuz’kyi Raion,Rozdil’nians’kyi  Raion,Verkhn’orohachyts’kyi Raion,Rivne Oblast,Starokostiantynivs’kyi Raion,Buryns’kyi Raion,Umanskyi Raion,Orativs’kyi Raion,Radekhiv Raion,Boryspil’s’kyi Raion,Lityns’kyi Raion,Nosivs’kyi Raion,Krasnokuts’kyi Raion,Tetiivs’kyi Raion,Khorol’s’kyi Raion,Mostyska Raion,Ivankivskyi Raion,Vynohradiv Raion,Anan’ivs’kyi Raion,Kosivskyi Raion,Zolochivs’kyi Raion,Drohobytskyi Raion,Kominternivs’kyi  Raion,Bohodukhivs’kyi  Raion,Іvanivs’kyi Raion,Popasnians’kyi  Raion,Khotyn Raion,Chernihiv Oblast,Kalanchats’kyi  Raion,Novotroits’kyi Raion,Vil’nians’kyi Raion,Koziatyns’kyi Raion,Volodymyr-Volyns’kyi Raion,Pervomais’kyi Raion,Vysokopil’s’kyi  Raion,Fastivskyi Raion,Andrushivs’kyi Raion,Katerynopil’s’kyi Raion,Poltavs’kyi Raion,Crimea,Novhorodkivs’kyi Raion,Tul’chyns’kyi Raion,Starobeshivs’kyi Raion,Terebovlya Raion,Shyrokivs’kyi Raion,Saky Raion,Konotops’kyi Raion,Krasnolymanskyi Raion,Tiachiv Raion,Kolomyiskyi Raion,Lokachi Raion,Baranivs’kyi Raion,Kiliis’kyi  Raion,Vin’kovets’kyi Raion,Khust Raion,Zvenyhorods’kyi  Raion,Pidhaietskyi Raion,Artsyz’kyi  Raion,Zin’kivs’kyi Raion,Novoushyts’kyi Raion,Verkhovynskyi Raion,Kam'ianka-Buz’kyi Raion,Vasyl’kivs’kyi Raion,Chyhyryns’kyi  Raion,Baryshivs’kyi Raion,Kam'ianets’-Podil’s’kyi Raion,Pervomayskiy Raion of Crimea,Bilozers’kyi Raion,Pischans’kyi Raion,Heniches’kyi Raion,Korets Raion,Velykopysarivs’kyi Raion,Putyla Raion,Chernivtsi Oblast,Novoselytskyi Raion,Vinnytsia Oblast,Halytskyi Raion,Kharkivs’kyi Raion,Kamin’-Kashyrs’kyi Raion,Bakhchisaray raion,Kompaniivs’kyi Raion,Ul’ianovs’kyi Raion,Starobil’s’kyi  Raion,Arbuzyns’kyi  Raion,Krasnooknians’kyi Raion,Hrebinkivskyi Raion,Vyshhorodskyi Raion,Zastavna Raion,Korostens’kyi Raion,Hertsaivskyi Raion,Borznians’kyi Raion,Novomyrhorodskyi Raion,Pokrovs’kyi Raion,Bobrovyts’kyi Raion,Odessa Oblast,Kam'ians’ko-Dniprovs’kyi Raion,Voznesens’kyi  Raion,Lokhvytskyi Raion,Ghorodyschens’kyi  Raion,Chernivets’kyi Raion,Kirovske raion,Vinnyts’kyi Raion,Sokyriany Raion,Kirovohrads’kyi Raion,Zaporiz’kyi Raion,Melitopol’s’kyi Raion,Velykooleksandrivs’kyi Raion,Zolotonis’kyi  Raion,Kremenchutskyi Raion,Hlobyns’kyi Raion,Kupyanskyi Raion,Dykanskyi Raion,Artemivskyi Raion,Volodars’kyi  Raion,Kuibyshevs’kyi Raion,Koriukivs’kyi Raion,Korsun’-Shevchenkivs’kyi  Raion,Chudnivs’kyi Raion,Berezniaky,Chaplyns’kyi  Raion,Zakarpattia Oblast,Chernihivs’kyi Raion,Lutsk Raion,Lanivtsi Raion,Varvyns’kyi Raion,Іziums’kyi Raion,Trostianets’kyi Raion,Onufriivs’kyi Raion,Stryi Raion,Buchach Raion,Novoodes’kyi Raion,Novovorontsovs’kyi  Raion,Krasylivs’kyi Raion,Khmelnytskyi Oblast,Zhashkivs’kyi Raion,Kryvoriz’kyi Raion,Dunaivtsi Raion,Dobropilskyi Raion,Zarichne Raion,Ovruts’kyi Raion,Lenine raion,/m/0cncys3,Berezans’kyi Raion,Iakymivs’kyi Raion,Berdyansk Raion,Zhovkva Raion,Petropavlivs’kyi Raion,Kozivskyi Raion,Semenivs’kyi raion Raion,Iur'ivs’kyi Raion,Polis’kyi  Raion,Nizhyns’kyi Raion,Kalynivs’kyi Raion,Pecheniz’kyi Raion,Rohatynskyi Raion,Radyvyliv Raion,Putyvl’s’kyi Raion,Borivs’kyi Raion,Kulykivs’kyi Raion,Shevchenkivs’kyi Raion,Lyubars’kyi Raion,Malyns’kyi  Raion,Tel’manivs’kyi Raion,Volodars’ko-Volyns’kyi Raion,Letychivs’kyi Raion,Pereiaslav-Khmel’nyts’kyi Raion,Polons’kyi Raion,Monastyryska Raion,Shatsk Raion,Luhyns’kyi Raion,Vyzhnytsia Raion,Hadyatskyi Raion,Popil’nians’kyi Raion,P'iatykhats’kyi Raion,Radomyshl’s’kyi Raion,Velykonovosilkivs’kyi Raion,Shyshats’kyi Raion,Tatarbunarskyi Raion,Kremins’kyi Raion,Bilohirsk raion,Pavlohrads’kyi Raion,Vil’shans’kyi Raion,Yaghotyns’kyi  Raion,Nyzhn’osirohoz’kyi  Raion,Novoazovskyi Raion,Zmiivs’kyi Raion,Kanivs’kyi  Raion,Domanivs’kyi Raion,Rozivs’kyi Raion,Pervomais’kyi Raion,Shepetivs’kyi Raion,Slavuts’kyi  Raion,Simferopol Raion,Iemil’chyns’kyi Raion,Ostroh Raion,Ovidiopol’s’kyi  Raion,Shpolians’kyi  Raion,Veselynivs’kyi Raion,Kivertsi Raion,Zhmeryns’kyi Raion,Sribnians’kyi Raion,Nikopolskyi Raion,Chernihivs’kyi Raion,Vovchans’kyi Raion,Petrykivs’kyi Raion,Kostiantynivs’kyi Raion,Lutuhyns’kyi  Raion,Kryvoozers’kyi Raion,Shostkyns’kyi Raion,Perechyn Raion,Mykolaivs’kyi Raion,Zhovtnevyi Raion,Lubens’kyi Raion,Malovyskivskyi Raion,Murovanokurylovets’kyi Raion,Teplytskyi Raion,Gholovanivs’kyi  Raion,Znam'ians’kyi Raion,Donetsk Oblast,Orzhyts’kyi Raion,Huliaipil’s’kyi Raion,Myrhorodskyi Raion,Sverdlovs’kyi  Raion,Krasnoperekopsk Raion,Slov’ianoserbs’kyi Raion,Stanychno-Luhans’kyi Raion,Sambir Raion,Kozel’schyns’kyi Raion,Turiisk Raion,Velykobahachans’kyi Raion,Savrans’kyi  Raion,Hlybotskyi Raion,Kostopil Raion,Peremyshliany Raion,Zhydachiv Raion,Sarny Raion,Dvorichans’kyi Raion,Liubashivskyi Raion,Zachepylivs’kyi Raion,Velykolepetys’kyi Raion,Krasnohvardiyske Raion,Volovets Raion,Krasnopil’s’kyi Raion,Zbarazh Raion,Pryazovs’kyi Raion,Shumsk Raion,Chornobaivs’kyi  Raion,Volochysky Raion,Fastivs’kyi Raion,Balakliis’kyi Raion,Apostolivs’kyi Raion,Barvinkivs’kyi Raion,Bershads’kyi Raion,Ielanets’kyi Raion,Sevastopol,Kryzhopil’s’kyi Raion,Krasnoarmiiskyi Raion,Turka Raion,Bakhmats’kyi  Raion,Horodok Raion,Bars’kyi Raion,Ghornostaivs’kyi  Raion,Pohrebysche Raion,Mykolaiv Raion,Chutivskyi Raion,Lviv Oblast,Teofipol’s’kyi  Raion,Krynychans’kyi Raion,Saks’ka mis’krada Raion,Tokmats’kyi Raion,Khmel’nyts’kyi Raion,Ochakivs’kyi Raion,Zdolbuniv Raion,Bilopil’s’kyi Raion,Derazhnians’kyi  Raion,Mashivs’kyi Raion,Shakhtars’kyi Raion,Dobrovelychkivskyi Raion,Rivne Raion,Kiev Oblast,Pereval’s’kyi Raion,Horodnians’kyi Raion,Oleksandriis’kyi  Raion,Husiatyn Raion,Pustomyty Raion,Ripkyns’kyi Raion,Sakhnovschyns’kyi Raion,Velykobilozers’kyi Raion,Iampil’s’kyi Raion,Novoarkhanhel’s’kyi Raion,/m/0cncyt3,Krasnodons’kyi Raion,Storozhynetskyi Raion,Nadvirnianskyi Raion,Iarmolynets’kyi Raion,Ternopil Oblast,Bolhrads’kyi Raion,Volnovas’kyi Raion,Balts’kyi Raion,Iampil’s’kyi Raion,Pershotravnevyi  Raion,Myronivskyi Raion,Tyvrivs’kyi Raion,Luhansk Oblast,Markivs’kyi Raion,Lebedyns’kyi Raion,Bilovods’kyi Raion,Rozhysche Raion,Kitsman Raion,Nizhnegorskiy Raion,Verkhn’odniprovs’kyi Raion,Bilhorod-Dnistrovs’kyi Raion,Milovskyi Raion,Dnipropetrovsk Oblast,Horodenkivskyi Raion,Ivanychi Raion,Obukhivskyi Raion,Kozelets’kyi  Raion,Válkivs’kyi Raion	Ukrainian hryvnia,Ukrainian Hrivna	Ukrainian Language			ua	Hungarian,Ukrainian Language,Moldovan language,Tatar Language,Russian Language,Romanian Language	Parliamentary system,Republic,Semi-presidential system	/m/03zdxnf	Ukrainian karbovanets	380
Federated States of Micronesia	/m/03188		"MICRONESIA, FEDERATED STATES OF"	FM					Yap,Chuuk,Kosrae,Pohnpei	US$	Ulithian Language,Pohnpeian language,Chuukese Language,Woleaian Language,English Language,Kosraean language,Yapese Language			fm	English Language	Presidential system,Representative democracy,Republic,Federation			
Territory of Papua and New Guinea	/m/026wtlf				Canberra					Australian dollar	English Language				English Language,Tok Pisin Language	United Nations Trust Territories			
American Samoa	/m/0h8d		AMERICAN SAMOA	AQ	Fagatogo,Pago Pago					US$	Samoan Language,English Language			as					
Seychelles	/m/06sw9		SEYCHELLES	SE	Victoria				Beau Vallon,Plaisance	Seychelles rupee	English Language,Seselwa Creole French Language,French Language			sc	French Language	Republic			
Syria	/m/06vbd		SYRIAN ARAB REPUBLIC	SY	Damascus				Hama,Aleppo,As Suwayda,Rif Dimashq,Quneitra,Lattakia,Al Hasakah,Idlib,Tartous Governorate,Damascus,Ar Raqqah,Dara,Homs,Dayr az-Zawr	Turkish lira,Syrian pound,Turkish new lira	Arabic Language			sy	Bedawi Arabic,Arabic Language	Dictatorship,Republic,Single-party state,Presidential system			
Event planning	/m/0fddqq																		
Equatorial Guinea	/m/02kcz		EQUATORIAL GUINEA	EK	Malabo				Litoral Province,Annobón,Wele-Nzas Province,Kié-Ntem Province,Bioko Sur Province,Bioko Norte Province,Centro Sur Province	Equatorial Guinean peseta,Equatorial Guinean ekwele,Central African CFA franc	French Language,Portuguese Language,Spanish Language			gq	French Language,Spanish Language	Presidential system,Dictatorship,Republic	/m/0d9f5hp	Equatorial Guinean ekwele,Equatorial Guinean peseta	
Macau	/m/04thp		MACAO	MC					Municipality of Macau,Municipality of the Islands	Macanese pataca	Chinese language,Standard Cantonese,Cantonese,Portuguese Language,Standard Mandarin			mo	Portuguese Language		/m/0bwbgh_		
Kingdom of the Lombards	/m/047glq0				Monza,Pavia,Milan														
Moldova	/m/04w4s		"MOLDOVA, REPUBLIC OF"	MD	Chişinău				Cimişlia,Rîbniţa,Transnistria,Nisporeni,Tighina,Edineţ,Leova,Orhei,Teleneşti,Basarabeanca,Slobozia,Anenii Noi,Ialoveni,Raionul Rezina,Donduşeni,Ceadîr-Lunga,Raionul Teleneşti,Drochia,Basarabeasca,Raionul Leova,Raionul Drochia,Soroca,Cahul,Rîşcani,Glodeni,Criuleni,Lăpuşna County,Raionul Sîngerei,Raionul Rîşcani,Chişinău,Raionul Glodeni,Hînceşti,Străşeni,Tiraspol,Comrat,Raionul Donduşeni,Administrative Region of Camenca,Călăraşi,Dubăsari,Raionul Ocniţa,Căuşeni,Gagauzia,Raionul Floreşti,Rezina,Raionul Briceni,Ungheni,Cameanca,Raionul Cantemir,Dubăsari district,Raionul Taraclia,Taraclia,Raionul Cimişlia,Briceni,Cainari,Sfîntu Grigori,Raionul Ştefan Vodă,Raionul Străşeni,Vulcăneşti,Bălţi,Raionul Hînceşti,Raionul Şoldăneşti,Raionul Călăraşi,Raionul Făleşti	Moldovan leu,Moldovan cupon	Moldovan language,Romanian Language			md	Russian Language,Ukrainian Language,Moldovan language			Moldovan cupon	
Bosnia and Herzegovina	/m/0166b		BOSNIA AND HERZEGOVINA	BK	Sarajevo				Republika Srpska,Federation of Bosnia and Herzegovina	Bosnia and Herzegovina convertible mark,Bosnia and Herzegovina dinar	Bosnian language,Serbian language,Croatian language,Serbo-Croatian			ba	Serbian language	Federation,Federal republic,Parliamentary republic,Republic	/m/0d7q6mx	Bosnia and Herzegovina dinar	
United States Virgin Islands	/m/07ww5		"VIRGIN ISLANDS, U.S."	VQ	Charlotte Amalie					US$	English Language			vi,us	English Language				
Rhodesia	/m/06jnv				Harare														
Nauru	/m/05br2		NAURU	NR						Australian dollar	Nauruan Language,English Language			nr	English Language	Republic			
Luxembourg	/m/04g61		LUXEMBOURG	LU	Luxembourg				Diekirch,Luxembourg,Grevenmacher	Belgian franc,Euro,Dutch gulden	French Language,Luxembourgish language,German Language			lu	French Language,German Language	Monarchy,Grand duchy,Parliamentary system,Constitutional monarchy	/m/0g4r1v8	Luxembourgish franc,Belgian franc	352
Republic of Ireland	/m/03rt9		IRELAND	EI	Dublin				County Longford,Waterford,Longford,County Cork,Wexford,County Sligo,County Galway,County Cavan,County Tipperary,Sligo,County Kilkenny,County Laois,Cavan,County Kerry,County Meath,County Leitrim,Tipperary,County Dublin,County Wicklow,County Kildare,County Clare,Dublin,County Limerick,County Offaly,Mayo,County Westmeath,County Donegal,Carlow,Monaghan,Roscommon,County Wexford,Wicklow,County Carlow,Donegal,Galway,Kilkenny,Limerick,County Mayo,County Roscommon,County Louth,County Waterford,County Monaghan,Kildare	Euro	English Language,Irish			ie	Fingalian,British English,Irish,Yola language,Gaelic,Hiberno-English	Parliamentary system,Constitutional republic,Democracy,Republic	/m/03k0fpw	Irish pound	353
Saint Lucia	/m/06s0l		SAINT LUCIA	ST	Castries				Anse la Raye Quarter,Castries Quarter,Choiseul Quarter,Dauphin Quarter,Soufrière,Vieux Fort Quarter,Gros Islet Quarter,Praslin Quarter,Laborie Quarter,Dennery Quarter,Micoud Quarter	East Caribbean dollar	French-based creole languages,Antillean Creole,Spanish Language,English Language			lc	English Language	Parliamentary system,Constitutional monarchy			
Bhutan	/m/07bxhl		BHUTAN	BT	Thimphu				Samdrup Jongkhar,Chukha,Samtse District,Trashigang,Bumthang District,Dagana District,Trongsa District,Zhemgang,Thimphu District,Punakha District,Haa District,Wangdue Phodrang,Tsirang District,Mongar District,Sarpang District,Pemagatshel,Paro District,Lhuntse	Indian rupee,Bhutanese ngultrum	English Language,Dzongkha Language			bt	Nepali Language	Democracy,Monarchy,Constitutional monarchy,Parliamentary system		Bhutanese rupee	
Zimbabwe	/m/088q4		ZIMBABWE	ZI	Harare				Masvingo,Matabeleland South,Mashonaland East,Matabeleland North,Bulawayo,Manicaland,Mashonaland West,Harare,Mashonaland Central,Midlands	US$	South African English,Ndebele Language,Shona Language,English Language			zw	English Language	Presidential system,Parliamentary republic,Parliamentary system,Dictatorship,Republic,Semi-presidential system	/m/048w92b	Rhodesian pound,Zimbabwean dollar	263
French Canadian	/m/012c1l																		
Cameroon	/m/01nln		CAMEROON	CM	Yaoundé				Southwest Province,Littoral Province,Far North Province,South Province,North Province,Centre Province,Adamawa Province,West Province,Northwest Province,East Province	Central African CFA franc	English Language,French Language			cm	Naki Language,French Language,Koshin Language,English Language,Fula language	Dictatorship,Republic			
Greater Khorasan	/m/04x_hs																		
Azerbaijan	/m/0jhd		AZERBAIJAN	AJ	Baku				Ali Bayramli,Absheron,Zangilan,Samukh,Ismailli,Goranboy,Yardymli,Balakan,Yevlakh,Baku,Oguz,Shaki,Yevlakh,Siazan,Khachmaz,Shaki,Ağcabədi,Sadarak,Agsu,Hajigabul,Ordubad,Goychay,Sharur,Barda,Agdam,Lankaran,Xizi,Saatly,Quba,Davachi,Shamakhi,Jabrayil,Qakh,Lankaran,Khizi,Qubadli,Ucar, Azerbaijan,Astara,Shusha,Masally,Lachin,Mingachevir,Qazax,Khanlar,Kalbajar,Dashkasan,Ganja,Shamkir,Sumqayit,Sabirabad,Agdash,Babek,Tovuz,Imishli,Qusar,Zardab,Lerik,Salyan,Qobustan,Kurdamir,Shakhbuz,Bilasuvar,Nakhichevan,Fuzûlî,Gadabay,Khojali,Tartar,Naftalan,Beylagan,Khojavend,Stepanakert,Lachin,Siyəzən,Ağstafa,Julfa,Zaqatala,Qabala,Jalilabad,Neftchala	Azerbaijani manat	Azerbaijani language			az		Parliamentary republic,Presidential system	/m/0d8nc7m		994
Provisional Administrative Entity of South Ossetia	/m/04jphc5															Government in exile			
Kingdom of Bohemia	/m/0410vqb				Prague														
Kazakhstan	/m/047lj		KAZAKHSTAN	KZ	Astana				Koksetau,Atyrau Province,Kyzylorda Province,South Kazakhstan Province,Baikonur,Astana,Karagandy Province,Zhambyl Province,Kostanay Province,Aktobe Province,East Kazakhstan Province,Almaty,Almaty Province,North Kazakhstan Province,Aqmola Province,Mangghystau Province,Pavlodar Province,West Kazakhstan Province	Kazakhstani tenge	Kazakh Language,Russian Language			kz	Ukrainian Language,Russian Language	Presidential system,Dictatorship			
Sri Lanka	/m/06m_5		SRI LANKA	CE	Colombo,Kotte				North Eastern Province,North Western Province,Southern Province,Sabaragamuwa Province,Central Province,Uva Province,Western Province,North Central Province	Sri Lankan rupee	Sinhala Language, English and Tamil also used,Tamil Language,Sinhala Language,English Language			lk	English Language,Tamil Language	Republic		Indian rupee	
Estonia	/m/02kmm		ESTONIA	EN	Tallinn				Hiiu County,Lääne County,Kohtla-Järve,Viljandi County,Põlva County,Ida-Viru County,Jõgeva County,Tartu County,Lääne-Viru County,Saare County,Järva County,Võru County,Valga County,Harju County,Rapla County,Pärnu County	Estonian kroon	Estonian Language			ee	Finnish Language	Parliamentary republic	/m/0478lcr		372
Ancient Thebes	/m/03qmj4z				Theban Cadmea											Theban hegemony			
Papua New Guinea	/m/05qkp		PAPUA NEW GUINEA	PP	Port Moresby				Sandaun	Papua New Guinean kina	English Language,Tok Pisin Language,Hiri Motu language			pg	Tok Pisin Language,English Language	Constitutional monarchy,Parliamentary system			
East Timor	/m/02lx0			TT	Dili				Ermera,Liquiçá,Oecussi-Ambeno,Dili,Manufahi,Ainaro,Lautém,Aileu,Manatuto,Viqueque,Cova-Lima,Baucau,Bobonaro	US$	Tetun Language,Portuguese Language			tl	Portuguese Language	Parliamentary republic	/m/0d9dsvw,/m/0d9dkkn		
Denmark	/m/0k6nt		DENMARK	DA	Copenhagen				Ribe County,Bornholm,Frederiksborg County,Aarhus County,Region Nordjylland,Copenhagen,Copenhagen County,Middelfart Municipality,Region Syddanmark,Funen County,North Jutland County,Frederiksberg,Roskilde County,West Zealand County,Storstrøm County,Region Sjælland,Ringkjøbing County,Greenland,South Jutland County,Region Midtjylland,Vejle County,Viborg County,Region Hovedstaden	Danish krone,Faroese króna	Danish Language			dk	Faroese,Danish Language,Greenlandic language	Constitutional monarchy,Parliamentary system,Monarchy	/m/03x7z9j		45
Surakarta Sultanate	/m/0bvq4qx																		
Austria-Hungary	/m/012m_				Vienna,Budapest					Austro-Hungarian krone,Austro-Hungarian gulden	Hungarian,German Language								
Herm	/m/0j25h									UK £	English Language,French Language			gg					
Ptolemaic Kingdom	/m/02vkl1t																		
Duchy of Pomerania	/m/047gls8				Szczecin,Wolgast,Demmin														
Palestinian National Authority	/m/0604m				Ramallah,Gaza,Jerusalem				Gaza Strip,West Bank,Palestinian territories	Israeli new sheqel,Jordanian dinar,Egyptian pound	English Language,Arabic Language			ps		Parliamentary system,Republic,Semi-presidential system	/m/0d9gytm		
Two Sicilies	/m/0d0q4				Naples														
Bulgaria	/m/015qh		BULGARIA	BU	Sofia				Pleven Province,Veliko Tarnovo Province,Kyustendil Province,Dobrich Province,Varna Province,Burgas Province,Vidin Province,Sofia,Blagoevgrad Province,Yambol Province,Pazardzhik Province,Gabrovo Province,Montana Province,Smolyan Province,Vratsa Province,Silistra Province,Sliven Province,Targovishte Province,Razgrad Province,Ruse Province,Shumen Province,Stara Zagora Province,Plovdiv Province,Lovech Province,Sofia Province,Kardzhali Province,Sofia City Province,Pernik Province,Haskovo Province	Bulgarian lev	Bulgarian Language			bg	Torlakian,Bulgarian Language	Parliamentary republic,Parliamentary system	/m/03wzc6b		359
Peru	/m/016wzw		PERU	PE	Lima				Callao Region,Junín Region,Ucayali Region,Arequipa Region,Tacna Region,La Libertad Region,Amazonas Region,Cusco Region,Ayacucho Region,Puno Region,Ancash Region,Pasco Region,Lima Region,San Martín Region,Ica Region,Apurímac Region,Huancavelica Region,Tumbes Region,Moquegua Region,Piura Region,Huánuco Region,Cajamarca Region,Madre de Dios Region,Lambayeque Region,Loreto Region	Peruvian nuevo sol,Peruvian inti,Peruvian libra,Peruvian sol	Spanish Language,Aymara language,Quechua			pe	Puquina Language,Omagua Language,Harakmbut languages,Spanish Language	Presidential system,Republic	/m/03z964x	Peruvian sol,Peruvian inti	51
Samoa	/m/06s9y			WS	Apia					Samoan tala	Samoan Language,English Language			ws	English Language	Constitutional monarchy,Monarchy,Parliamentary republic,Parliamentary system			
Tokelau	/m/07f9q		TOKELAU	TL						New Zealand pound,New Zealand dollar	English Language,Tokelauan language			tk		Constitutional monarchy		New Zealand pound	
Djibouti	/m/027jk		DJIBOUTI	DJ	Djibouti,Djibouti				Tadjourah Region,Dikhil Region,Arta Region,Ali Sabieh Region,Djibouti,Obock Region	Djiboutian franc	Arabic Language,French Language			dj	French Language,Arabic Language	Semi-presidential system,Republic	/m/04c_bk6		253
Angola	/m/0j4b		ANGOLA	AO	Luanda				Cuando Cubango,Huíla,Uíge,Cuanza Sul,Luanda,Lunda Sul,Zaire,Bié,Cabinda,Lunda Norte,Benguela,Cunene,Namibe,Moxico,Bengo,Malanje,Huambo,Cuanza Norte	Angolan escudo,Angolan kwanza	Portuguese Language			ao	Portuguese Language,Bantu languages	Presidential system,Republic		Angolan escudo	244
Sudan	/m/06tw8		SUDAN	SU	Khartoum				Warab,East Equatoria,West Bahr al Ghazal,South Darfur,West Darfur,Red Sea,Upper Nile,North Darfur,Blue Nile,Al Qadarif,West Equatoria,North Bahr al Ghazal,Sennar,Khartoum,Northern,White Nile,Darfur,North Kurdufan,Kassala,West Kurdufan,Bahr el Ghazal,Transitional Darfur Regional Authority,Al Jazirah,River Nile,Central Equatoria,Jonglei,Unity,Lakes,Kurdufan,South Kurdufan	Sudanese pound,Sudanese dinar	English Language,Arabic Language			sd	Fula language,Arabic Language	Representative democracy,Republic,Coalition,Democracy,Presidential system,Dictatorship,Federal republic		Sudanese dinar	249
Maldives	/m/04ty8		MALDIVES	MV	Malé				Gnaviyani Atoll,Gaafu Dhaalu Atoll,Baa Atoll,Faafu Atoll,Gaafu Alif Atoll,Seenu Atoll,Lhaviyani Atoll,Meemu Atoll,Raa Atoll,Dhaalu Atoll,Laamu Atoll,Shaviyani Atoll,Thaa Atoll,Male' Atoll,Vaavu Atoll,Haa Alif Atoll,Haa Dhaalu Atoll,Malé,Kaafu Atoll,Noonu Atoll	Maldivian rufiyaa	Dhivehi language,Mahl language			mv		Republic,Presidential system			
Netherlands Antilles	/m/05byy		NETHERLANDS ANTILLES	NT	Willemstad				Sint Maarten	Dutch gulden,Netherlands Antillean gulden	English Language,Spanish Language,Papiamento language,Dutch Language			an		Parliamentary system			599
Guyana	/m/034m8		GUYANA	GY	Georgetown				East Berbice-Corentyne,Cuyuni-Mazaruni,Essequibo Islands-West Demerara,Upper Takutu-Upper Essequibo,Mahaica-Berbice,Demerara-Mahaica,Pomeroon-Supenaam,Upper Demerara-Berbice,Potaro-Siparuni,Barima-Waini	Guyanese dollar	Arawak,Hindi Language,English Language			gy	English Language	Semi-presidential system			
West Germany	/m/082fr				Bonn					German mark	German Language			de	German Language	Republic	/m/04l4bss		49
Portugal	/m/05r4w		PORTUGAL	PO	Lisbon				Castelo Branco,Évora,Beja,Aveiro,Guarda,Leiria,Viana do Castelo,Viseu,Guarda,Portalegre,Porto,Vila Real,Bragança,Faro,Coimbra,Castelo Branco,Portalegre,Braga,Madeira,Faro,Santarém,Coimbra,Santarém,Lisboa,Azores,Setúbal,Braga,Setúbal,Évora,Beja,Porto,Leiria,Aveiro,Viseu	Euro	Portuguese Language			pt	Miranda do Douro Language,Portuguese Language	Parliamentary republic,Semi-presidential system,Parliamentary system	/m/04g84tm,/m/0bwnylt	Portuguese escudo	351
Spain	/m/06mkj		SPAIN	SP	Madrid				Lugo,Aragon,Valencia,Ávila,Gipuzkoa,Álava,Valladolid,Toledo,Lleida,Málaga,Navarre,A Coruña,Guadalajara,Teruel,Valencian Community,Tarragona,Balearic Islands,Castellón,Castile and León,Granada,Ceuta,Cantabria,Zaragoza,Badajoz,Zamora,Barcelona,Andalusia,Soria,Palencia,Salamanca,Segovia,Burgos,Pontevedra,La Rioja,Biscay,Canary Islands,Santa Cruz de Tenerife,Almería,Basque Country,Madrid,Huesca,Girona,Jaén,Extremadura,Cáceres,Cádiz,Galicia,Murcia,Seville,León,Melilla,Castile-La Mancha,Córdoba,Ourense,Las Palmas,Barcelona,Asturias,Ciudad Real,Catalonia,Albacete,Huelva,Alicante,Cuenca	Euro,Spanish peseta	Aranese language,Aragonese Language,Valencian,Occitan language,Catalan language,Asturian language,Spanish Language,Galician Language,Basque Language			eu,cat,es	Occitan language,Basque Language,Catalan language,Esperanto Language,Spanish Language	Constitutional monarchy,Parliamentary system,Monarchy	/m/03z95_9	Spanish peseta	34
Hungary	/m/03gj2		HUNGARY	HU	Budapest				Komárom-Esztergom,Baranya,Bács-Kiskun,Pest,Vas,Budapest,Fejér,Győr-Moson-Sopron,Borsod-Abaúj-Zemplén,Somogy,Veszprém,Nógrád,Hajdú-Bihar,Szabolcs-Szatmár-Bereg,Pécs,Zala,Heves,Békés,Veszprém,Győr,Miskolc,Szeged,Debrecen,Csongrád,Tolna,Jász-Nagykun-Szolnok	Hungarian forint	Hungarian,Hungarian Sign Language			hu	Ukrainian Language,Hungarian,Esperanto Language	Republic,Parliamentary republic	/m/04jtny2	Hungarian korona,Hungarian pengő	36
Belize	/m/0164b		BELIZE	BH	Belmopan				Corozal District,Cayo District,Stann Creek District,Orange Walk District,Toledo District,Belize District	Belize dollar	English Language			bz	English Language,Spanish Language	Parliamentary system,Constitutional monarchy	/m/0bwnz2h		
Central African Republic	/m/01nyl		CENTRAL AFRICAN REPUBLIC	CT	Bangui				Ouaka,Mambéré-Kadéï,Ombella-M'Poko,Vakaga,Haute-Kotto,Ouham-Pendé,Bamingui-Bangoran,Bangui,Nana-Mambéré,Haut-Mbomou,Ouham,Sangha-Mbaéré,Lobaye,Kémo,Basse-Kotto,Mbomou	Central African CFA franc	French Language,Sango Language			cf	French Language,Fula language	Republic	/m/0d8sh1y		
Puntland	/m/01hywq				Garoowe					Somali shilling	Arabic Language,Somali Language			so					
Mecklenburg-Schwerin	/m/013py0																		
New Zealand	/m/0ctw_b		NEW ZEALAND	NZ	Wellington				Gisborne,Tasman District,Hawke's Bay,Greater Auckland,New Zealand,Chatham Islands,Tasman, New Zealand,Wellington Region,Tokelau,Taranaki,Waikato,Nelson,Bay of Plenty,Auckland Region,Marlborough,Wellington,Northland Region,Southland Region,Canterbury,Cook Islands,West Coast,Manawatu-Wanganui,Niue,Otago	New Zealand dollar,Cook Islands dollar	Māori language,New Zealand English,New Zealand Sign Language,English Language			nz	Samoan Language,Fijian Language,Standard Mandarin,Esperanto Language,Māori language,English Language,Tongan Language	Mixed member proportional representation,Parliamentary system,Constitutional monarchy	/m/03k0ds1,/m/03ywtvf	New Zealand pound	64
Crown of Aragon	/m/03f4n1				Barcelona,Naples,Zaragoza														
Jersey	/m/03_xj		JERSEY	JE						UK £,Jersey pound	French Language,English Language			je	English Language	Parliamentary system,Constitutional monarchy			
German Empire	/m/03b79																		
Eritrea	/m/02khs		ERITREA	ER	Asmara				Maekel,Gash-Barka,Debub,Southern Red Sea,Anseba,Northern Red Sea	Eritrean nakfa	English Language,Italian Language,Tigre language,Tigrigna Language,Arabic Language			er	Arabic, Hijazi Spoken Language	Dictatorship,Presidential system,Single-party state,Republic			
Union of South Africa	/m/0c4b8				Pietermaritzburg,Bloemfontein, Free State,Pretoria,Cape Town					South African pound	Dutch Language,English Language,Afrikaans Language					Constitutional monarchy	/m/04kxmfk		
Japan	/m/03_3d		JAPAN	JA	Tokyo				Yamanashi Prefecture,Ehime Prefecture,Kyoto Prefecture,Kagoshima Prefecture,Gunma Prefecture,Miyazaki Prefecture,Shimane Prefecture,Tokyo,Saga Prefecture,Shizuoka Prefecture,Fukushima Prefecture,Saitama Prefecture,Yamagata Prefecture,Fukui Prefecture,Hokkaido,Nagano Prefecture,Aichi Prefecture,Aomori Prefecture,Osaka Prefecture,Okinawa Prefecture,Ibaraki Prefecture,Fukuoka Prefecture,Shiga Prefecture,Chiba Prefecture,Yamaguchi Prefecture,Oita Prefecture,Wakayama Prefecture,Tochigi Prefecture,Nagasaki Prefecture,Toyama Prefecture,Akita Prefecture,Mie Prefecture,Kochi Prefecture,Tokushima Prefecture,Tottori Prefecture,Kumamoto Prefecture,Hyogo Prefecture,Niigata Prefecture,Gifu Prefecture,Okayama Prefecture,Iwate Prefecture,Ishikawa Prefecture,Nara Prefecture,Kagawa Prefecture,Kanagawa Prefecture,Hiroshima Prefecture,Miyagi Prefecture	Japanese yen	Japanese Language			jp	Japanese Language,Korean Language,Esperanto Language	Parliamentary system,Constitutional monarchy,Monarchy	/m/0478l3y		81
Kingdom of Iraq	/m/02p717m																		
Austrasia	/m/0gytv																		
Brazil	/m/015fr		BRAZIL	BR	Brasília				Pará,Roraima,São Paulo,Brazilian Federal District,Telêmaco Borba,Pernambuco,Alagoas,Minas Gerais,Espírito Santo,Sergipe,Santa Catarina,Rio Grande do Sul,Rio de Janeiro,Amazonas,Mato Grosso do Sul,Ceará,Rondônia,Tocantins,Maranhão,Bahia,Goiás,Mato Grosso,Piauí,Paraíba,Acre,Amapá,Paraná,Rio Grande do Norte	Brazilian real	Portuguese Language	/m/02_3ztw		br	Portuguese Language,Esperanto Language,Brazilian Portuguese,Ukrainian Language	Federal republic,Presidential system	/m/0d8np7j,/m/0478lkd		
Principality of Montenegro	/m/09yxr7																		
Australia	/m/0chghy		AUSTRALIA	AS	Australian Capital Territory,Canberra				Norfolk Island,Shire of Peppermint Grove,Town of Claremont,Australian Antarctic Territory,Tasmania,Coral Sea Islands,City of Richmond,New South Wales,Northern Territory,Town of Cottesloe,Cocos (Keeling) Islands,Jervis Bay Territory,Electoral division of Goyder,South Australia,Christmas Island,Melbourne,Queensland,Victoria,Cocos Islands,Heard Island and McDonald Islands,Ashmore and Cartier Islands,Western Australia,City of Moreland,Australian Capital Territory,City of Nedlands	Australian pound,Australian dollar	English Language			au	English Language,Esperanto Language,Lojban	Parliamentary system,Constitutional monarchy	/m/02_8r9x	Australian pound	61
Kievan Rus'	/m/0c81v				Kiev,Velikiy Novgorod														
Saint Kitts and Nevis	/m/06ryl		SAINT KITTS AND NEVIS	SC	Basseterre				Saint John Figtree Parish,Saint Mary Cayon Parish,Saint Peter Basseterre Parish,Saint John Capisterre Parish,Saint Thomas Lowland Parish,Saint George Basseterre Parish,Saint Anne Sandy Point Parish,Christ Church Nichola Town Parish,Saint Thomas Middle Island Parish,Trinity Palmetto Point Parish,Saint Paul Capisterre Parish,Saint George Gingerland Parish,Saint Paul Charlestown Parish,Saint James Windward Parish	East Caribbean dollar	English Language			kn	English Language	Constitutional monarchy,Parliamentary system			
Union between Sweden and Norway	/m/01fvt8				Stockholm,Oslo														
France	/m/0f8l9c		FRANCE	FR	Paris				Saint Martin,Marne,Bas-Rhin,Midi-Pyrénées,Limousin,Nord-Pas de Calais,Corse-du-Sud,Cannes,Loiret,Charente,Meuse,Île-de-France,Bouches-du-Rhône,Clipperton Island,Rhône-Alpes,Nord,Lozère,Yvelines,Saint-Cast-le-Guildo,Territoire de Belfort,Pyrénées-Atlantiques,Calvados,Vienne,Somme,Bordeaux,Haute-Garonne,Doubs,Tarn,Tarn-et-Garonne,Centre,Essonne,Alpes-de-Haute-Provence,Haute-Vienne,Ille-et-Vilaine,Glorioso Islands,Canton of Matignon,Manche,Languedoc-Roussillon,Côtes-d'Armor,Haute-Normandie,French Southern Territories,Cher,Hautes-Alpes,Gironde,Aquitaine,Moselle,Loire-Atlantique,Marseille,Auvergne,Lot,Ariège,Provence-Alpes-Côte d'Azur,Mayotte,Seine-Saint-Denis,Gard,Nice,Morbihan,Drôme,Loir-et-Cher,Aude,New Caledonia,Picardie,Vendée,Maine-et-Loire,Pas-de-Calais,Meurthe-et-Moselle,Saint-Tropez,Orne,Creuse,Pays de la Loire,Bretagne,Dordogne,Finistère,Eure,Vaucluse,Paris,Haute-Loire,Champagne-Ardenne,Saône-et-Loire,Bourgogne,Aisne,Alsace,Aveyron,Hauts-de-Seine,Lorraine,Jura,Allier,Savoie,Landes,Aube,Wallis and Futuna,Alpes-Maritimes,Arrondissement of Cosne-Cours-sur-Loire,Seine-et-Marne,Charente-Maritime,Ardèche,Deux-Sèvres,Indre,Antibes,Gers,Oise,Indre-et-Loire,Hautes-Pyrénées,Poitou-Charentes,Ardennes,Vosges,Duault,Hérault,Var,Puy-de-Dôme,Corsica,Sarthe,Isère,Mayenne,Haut-Rhin,Ain,Yonne,Haute-Corse,Val-de-Marne,French Polynesia,Loire,Pyrénées-Orientales,Val-d'Oise,Eure-et-Loir,Haute-Saône,Lot-et-Garonne,Franche-Comté,Basse-Normandie,Gordes,Corrèze,Seine-Maritime,Saint-Pierre and Miquelon,Côte-d'Or,Rhône,Haute-Savoie,Haute-Marne,Cantal,Nièvre	Euro,Monegasque franc	French Language			gf,mq,yt,fr,cat,re,pf,pm,eu,wf,gp,nc,tf	Provençal Language,French Language,Esperanto Language,Occitan language,Basque Language	Republic,Semi-presidential system	/m/03xdzpf	French franc,Assignat,Monegasque franc	33
Channel Islands	/m/01p_6														French Language				
Algeria	/m/0h3y		ALGERIA	AG	Algiers				Oum el-Bouaghi Province,Guelma Province,Tiaret Province,Blida Province,Djelfa Province,Biskra Province,Béchar,Béjaïa Province,El Bayadh,Muaskar Province,Aïn Defla Province,Bordj Bou Arréridj Province,Constantine Province,Sidi Bel Abbes Province,Illizi,Bouira,Tlemcen Province,Aïn Témouchent Province,Skikda Province,El Tarf Province,Bouira Province,Saida Province,Naama Province,Tipasa,Médéa Province,Laghouat Province,Souk Ahras,Tamanghasset Province,El Oued Province,Sétif Province,Mila Province,Chlef Province,Mostaganem Province,Algiers Dairas,Jijel Province,Oran Province,Boumerdès Province,Tizi Ouzou,Annaba Province,Khenchela,Tébessa Province,Ouargla Province,Ghardaïa Province,M'Sila Province,Adrar Province,Tindouf Province,Relizane Province,Batna Province,Tissemsilt	Algerian dinar	French Language,Algerian Arabic,Arabic Language			dz	Arabic Language	Semi-presidential system,Presidential system	/m/04fhpf8		213
Soviet Union	/m/05vz3zq				Moscow					Soviet ruble	Russian Language				Chuvash Language,Tatar Language,Ukrainian Language			Soviet ruble	7
Pitcairn Islands	/m/05vd5		PITCAIRN	PC	Adamstown					New Zealand dollar,New Zealand pound	Pitkern,English Language			pn	English Language			New Zealand pound	
Somalia	/m/06tgw		SOMALIA	SO	Mogadishu				Bakool,Somaliland,Togdheer,Nugaal,Puntland,Awdal,Mudug,Hiiraan,Bay,Shabeellaha Hoose,Shabeellaha Dhexe,Jubbada Dhexe,Banaadir,Woqooyi Galbeed,Bari Region,Sool,Sanaag,Gedo,Galguduud,Jubbada Hoose	Somali shilling	Somali Language,Italian Language,Arabic Language			so		Semi-presidential system,Republic			
Fort Lauderdale	/m/0rj0z																		
Antigua and Barbuda	/m/0l3h		ANTIGUA AND BARBUDA	AC	St. John's				Barbuda,Saint Mary Parish,Saint Philip Parish,Saint Peter Parish,Saint John Parish,Saint George Parish,Saint Paul Parish	East Caribbean dollar	English Language			ag	English Language	Parliamentary system	/m/05bp5hb		1
Saint Martin	/m/02phy_9			RN	Marigot, St. Martin					Euro	French Language			fr,gp					
Transitional Darfur Regional Authority	/m/03d5b9c				Khartoum						Arabic Language,English Language								
Germany	/m/0345h		GERMANY	GM	Berlin				Mitte,Rhineland-Palatinate,Baden-Württemberg,Hesse,Hamburg,Saxony,Saarland,Thuringia,Mecklenburg-Western Pomerania,Saxony-Anhalt,Brandenburg,Berlin,Frankfurt,Schleswig-Holstein,Lower Saxony,Bavaria,North Rhine-Westphalia,Düsseldorf,Munich,Bremen	Euro	German Language	/m/02ydvk0	/m/02ydvhx,/m/02ydvjg	de	Saxon, Upper Language,German Language,Bavarian Language	Federal republic,Democracy,Parliamentary republic	/m/0478lgn	German Rentenmark,German papiermark,German mark,German Reichsmark	49
Kingdom of Navarre	/m/033bdl				Pamplona														
Hong Kong	/m/03h64									Hong Kong dollar							/m/0bwbghk		
Poland	/m/05qhw		POLAND	PL	Warsaw				Lower Silesian Voivodeship,Warmian-Masurian Voivodeship,Greater Poland Voivodeship,Kuyavian-Pomeranian Voivodeship,Łódź Voivodeship,Białystok,Konin County,Podlaskie Voivodeship,Lublin Voivodeship,Lubusz Voivodeship,West Pomeranian Voivodeship,Subcarpathian Voivodeship,Gniezno County,Silesian Voivodeship,Pomeranian Voivodeship,Lesser Poland Voivodeship,Opole Voivodeship,Koszalin,Świętokrzyskie Voivodeship,Masovian Voivodeship	Polish złoty	Polish Language			pl	Polish Language	Democracy,Parliamentary republic	/m/09vbnym		48
Mauritius	/m/04vs9		MAURITIUS	MP	Port Louis				Grand Port,Rivière du Rempart,Quatre Bornes,Rodrigues,Port Louis,Savanne,Flacq,Agalega Islands,Port Louis,Cargados Carajos,Black River,Moka,Curepipe,Pamplemousses,Plaines Wilhems,Beau-Bassin,Vacoas-Phœnix	Mauritian rupee	French Language,English Language			mu	French Language,English Language,Tamil Language	Parliamentary republic			
Mayotte	/m/04vws		MAYOTTE	MF	Mamoudzou					Euro	French Language			yt					
Guam	/m/034tl		GUAM	GQ	Hagåtña					US$	Chamorro Language,English Language			gu		Representative democracy			
El Salvador	/m/02k8k		EL SALVADOR	ES	San Salvador				La Libertad Department,Usulután Department,San Salvador Department,Ahuachapán Department,San Vicente Department,Cuscatlán Department,Sonsonate Department,Cabañas Department,Chalatenango Department,San Miguel Department,La Unión Department,La Paz Department,Santa Ana Department,Morazán Department	US$,Salvadoran colón,El Salvadoran peso	Spanish Language,Nahuatl language			sv	Spanish Language	Presidential system,Republic	/m/0d9f407		
Republic of Hawaii	/m/019kzh																		
Republic of the Congo	/m/01rxw		CONGO	CF	Brazzaville				Likouala Region,Sangha Region,Bouenza Region,Cuvette-Ouest Region,Pool Region,Niari Region,Lékoumou Region,Cuvette Region,Plateaux Region,Kouilou Region,Brazzaville	Central African CFA franc	Kituba,French Language,Lingala Language			cg	French Language	Republic			
Bouvet Island	/m/0167b		BOUVET ISLAND	BV						Norwegian krone				bv					
Former Liang	/m/029q70																		
Nagorno-Karabakh Republic	/m/03gq3bp				Stepanakert					Armenian dram	Armenian Language					Presidential system			
Gibraltar	/m/035hm		GIBRALTAR	GI						Gibraltar pound	English Language			gi	English Language,Spanish Language		/m/09vklcm		
Philippines	/m/0dkc6bd																		
Iraq	/m/0d05q4		IRAQ	IZ	Baghdad				Najaf Governorate,Ninawa Governorate,Karbala Governorate,Wasit Governorate,Salah ad Din Governorate,Baghdad Governorate,Iraqi Kurdistan,Dahuk Governorate,Maysan Governorate,Dhi Qar Governorate,Arbil Governorate,Diyala Governorate,As Sulaymaniyah Governorate,Al Muthanna Governorate,Basra Governorate,Babil Governorate,At-Ta'mim Governorate,Al Anbar Governorate,Al-Qādisiyyah Governorate	Swiss dinar,Iraqi dinar	Assyrian Neo-Aramaic Language,Arabic Language,Turkmen Language,Syriac language,Kurdish language			iq	Arabic Language,Persian Language	Parliamentary republic	/m/0d9gytf		
Thailand	/m/07f1x		THAILAND	TH	Bangkok				Phuket Province,Nan Province,Yala Province,Kanchanaburi Province,Bangkok,Phitsanulok Province,Chiang Rai Province,Prachinburi Province,Nakhon Pathom Province,Ang Thong Province,Ratchaburi Province,Sing Buri Province,Saraburi Province,Kamphaeng Phet Province,Samut Songkhram Province,Narathiwat Province,Mukdahan Province,Trang Province,Lampang Province,Pattaya,Chainat Province,Lamphun Province,Sukhothai Province,Uthai Thani Province,Nakhon Nayok Province,Loei Province,Phang Nga Province,Phatthalung Province,Surin Province,Nakhon Sawan Province,Tak Province,Samut Prakan Province,Chanthaburi Province,Pattani Province,Krabi Province,Chonburi Province,Amphoe Chana,Udon Thani Province,Nongbua Lamphu Province,Phichit Province,Phayao Province,Roi Et Province,Chumphon Province,Phrae Province,Trat Province,Sakon Nakhon Province,Ranong Province,Nakhon Phanom Province,Sisaket Province,Uttaradit Province,Nakhon Si Thammarat Province,Prachuap Khiri Khan Province,Ayutthaya Province,Kalasin Province,Buriram Province,Nonthaburi Province,Ubon Ratchathani Province,Phetchabun Province,Rayong Province,Mae Hong Son Province,Songkhla Province,Maha Sarakham Province,Satun Province,Chachoengsao Province,Nong Khai Province,Chaiyaphum Province,Sa Kaeo Province,Phetchaburi Province,Nakhon Ratchasima Province,Pathum Thani Province,Lopburi Province,Amphoe Tha Chana,Amnat Charoen Province,Yasothon Province,Suphanburi Province,Surat Thani Province,Khon Kaen Province,Chiang Mai Province,Samut Sakhon Province	Thai baht	Thai Language			th	Thai Language,English Language	Monarchy,Parliamentary system,Constitutional monarchy	/m/0478lbb		66
Tunisia	/m/07fj_		TUNISIA	TS	Tunis				Tozeur Governorate,Jendouba Governorate,Sfax Governorate,Nabeul,Jendouba,Aryanah,Tataouine,Kebili,Gabès Governorate,Monastir Governorate,Medenine Governorate,Siliana,Béja,Nabeul Governorate,Siliana Governorate,Sidi Bou Said Governorate,Sfax,Manouba Governorate,Tunis Governorate,Zaghouan,Sousse Governorate,Kebili Governorate,Ben Arous Governorate,Ben Arous,Gafsa Governorate,Bizerte,Kairouan Governorate,Kef Governorate,Kasserine Governorate,Monastir,Tataouine Governorate,Tunis,Medenine,Mahdia Governorate,Béja Governorate,Bizerte Governorate,Zaghouan Governorate,Ariana Governorate,Kairouan,Gabès,Kasserine,Gafsa,Mahdia,Tozeur,Sousse	Tunisian dinar,Tunisian franc	Modern Standard Arabic,Arabic Language,French Language,Berber languages			tn	Arabic Language	Dictatorship,Republic		Tunisian franc	
South Georgia and the South Sandwich Islands	/m/06tnn		SOUTH GEORGIA AND THE SOUTH SANDWICH ISLANDS	SX	Grytviken					Falkland Islands pound,UK £	English Language			gs	English Language				
Mataram Kingdom	/m/06yyft				Madiun														
Ulster	/m/07w9n																		
Kingdom of France	/m/0cn_tpv																		
Slovak Republic	/m/07hj4m									Czechoslovak koruna									
Zambia	/m/088vb		ZAMBIA	ZA	Lusaka				Northern Province,Luapula Province,Western Province,Eastern Province,Central Province,Lusaka Province,Copper Belt	Zambian pound,Zambian kwacha	English Language			zm	English Language,Afrikaans Language,Swahili Language,Lozi Language,Tonga Language,Lunda Language,Kaonda language,Nyanja language,Bemba language	Republic	/m/03x6tkp	Zambian pound	260
Weimar Republic	/m/084n_									German papiermark									
Serbia	/m/077qn		SERBIA AND MONTENEGRO	RB	Belgrade					Serbian dinar	Serbian language			rs,yu	Torlakian,Hungarian	Parliamentary republic,Parliamentary system		Yugoslav dinar	
Grand Duchy of Frankfurt	/m/01lkc7				Aschaffenburg														
Colombia	/m/01ls2		COLOMBIA	CO	Bogotá				Amazonas Department,Arauca Department,Boyacá Department,Guajira Department,San Andrés and Providencia Department,Caquetá Department,Tolima Department,Meta Department,Norte de Santander Department,Caldas Department,Nariño Department,Sucre Department,Vichada Department,Cesar Department,Magdalena Department,Quindío Department,Antioquia Department,Cundinamarca Department,Guainía Department,Chocó Department,Bolívar Department,Vaupés Department,Cauca Department,Guaviare Department,Risaralda Department,Atlántico Department,Santander Department,Putumayo Department,Córdoba Department,Valle del Cauca Department,Huila Department,Casanare Department,Bogotá	Colombian peso	Spanish Language			co	Spanish Language,Camsá Language	Presidential system,Republic			
Gaza Strip	/m/0357_			GZ	Gaza					Egyptian pound,Israeli new sheqel	Arabic Language				Bedawi Arabic				
Grand Duchy of Kraków	/m/0drhsx																		
United Arab Republic	/m/0c75f				Cairo														
Guatemala	/m/0345_		GUATEMALA	GT	Guatemala City				Chimaltenango,Escuintla,Quiché,Jalapa,Jutiapa,Quetzaltenango,Chiquimula,Guatemala,Baja Verapaz,Huehuetenango,Sacatepéquez,El Progreso,Suchitepéquez,Sololá,Sacatepéquez,San Marcos,Retalhuleu,Totonicapán,Izabal,Santa Rosa,Zacapa,Petén,Alta Verapaz	Guatemalan quetzal	Spanish Language			gt	Spanish Language	Presidential system	/m/0d9gcvk		
Kingdom of Judah	/m/04frh																		
Saint Vincent and the Grenadines	/m/06s6l		SAINT VINCENT AND THE GRENADINES	VC	Kingstown				Saint David Parish,Saint Andrew Parish,Saint George Parish,Grenadines Parish,Saint Patrick Parish,Charlotte Parish	East Caribbean dollar	English Language			vc	English Language	Constitutional monarchy,Parliamentary system			
Libya	/m/04gqr		LIBYAN ARAB JAMAHIRIYA	LY	Tripoli				Al Jabal al Akhdar,Qamīnis,Al Jufrah,Gharyan,Misurata,Bani Walid,Ghat,Darnah Municipality,An Nuqat al Khams,Nalut,Sabratha Wa Surman,Al Wahah,Yafran,Az Zawiyah,Qaşr Bin Ghashīr,Tūkrah,Wadi Al Hayaa,Al Marj,Tarhunah,Al Abyār,Al Khums,Al Hizam Al Akhdar,Shaḩḩāt,Ajdabiya,Ash Shati',Darnah Governorate,Bani Walid,Al Qubbah,Al Jifarah,Jālū,Al Marqab,Al 'Aziziyah,Tubruq Municipality,Al Qatrun,Janzur,Murzuq,Bin Jawwād,Benghazi,Surt,Sabha,Jaghbub,Sabratah,Az Zawiyah Municipality,Al Jumayl,Zlitan,Al Kufrah,Mizdah,Tajura Wa Al Nawahi AlArba',Awbari,Al Bayda',Al Qarābūll,Jādū,Sawfajjin,Al Butnan,Ghadamis,Tripoli,Al Fatih	Libyan dinar	Italian Language,Arabic Language			ly	Arabic Language	Jamahiriya,Military dictatorship,Military junta,Dictatorship			
Niue	/m/05b2h		NIUE	NE	Alofi					New Zealand dollar	English Language,Niue Language			nu		Constitutional monarchy		New Zealand pound	
Korea	/m/048fz				Pyongyang,Seoul					South Korean won ₩,North Korean won,Korean won	Korean Language,Hangul				Korean Language,Hangul				
Tamil Nadu	/m/07c98																		
Sahrawi Arab Democratic Republic	/m/0gn8n				El Aaiún,Bir Lehlou,Tifariti						Arabic Language,Spanish Language					Government in exile,Republic			
Mecklenburg-Strelitz	/m/0dlrr																		
Central Tibetan Administration	/m/0f8mn				Dharamsala						Standard Tibetan,Tibetan language					Theocracy,Government in exile,Constitutional monarchy,Democracy			
Réunion Island	/m/0lxhj		REUNION	RE	Saint-Denis				Réunion Island										
Kirgisistan	/m/0g4ts_y																		
Zaire	/m/0k5vl				Kinshasa					Zairean zaire							/m/0d8sw23		
South Korea	/m/06qd3		"KOREA, REPUBLIC OF"	KS	Seoul				Daegu,Gyeonggi-do,Jeju-do,Jeollanam-do,Gangwon-do,Daejeon,Gyeongsangbuk-do,Chungcheongbuk-do,Gyeongsangnam-do,Jeollabuk-do,Chungcheongnam-do,Busan,Gwangju,Ulsan,Seoul,Incheon	South Korean hwan,South Korean won,South Korean won ₩	Korean Language			kr	Korean Language	Presidential system,Semi-presidential system,Republic	/m/0478llm	South Korean won,South Korean hwan	82
Former Yan	/m/03253k																		
Territory of New Guinea	/m/09wfqp				Rabaul,Canberra					Australian pound	English Language				Tok Pisin Language,English Language	League of Nations mandate			
Abkhazia	/m/011jw									Russian ruble									
India	/m/03rk0		INDIA	IN	New Delhi				Jharkhand,Uttar Pradesh,Puducherry,Jammu and Kashmir,Andaman and Nicobar Islands,Tripura,Madhya Pradesh,Sikkim,Manipur,Punjab,Mizoram,Goa,Delhi,Rajasthan,Orissa,Bihar,Arunachal Pradesh,Assam,Chhattisgarh,Andhra Pradesh,Chandigarh,Maharashtra,Tamil Nadu,Karnataka,Daman and Diu,Uttarakhand,Himachal Pradesh,Lakshadweep,Haryana,Dadra and Nagar Haveli,Kerala,Gujarat,Meghalaya,West Bengal,Nagaland	Indian rupee	English Language,Hindi Language			in	Telugu language,Mundari Language,Kannada Language,Gujarati Language,Tamil Language,English Language,Hindustani language,Hindi Language,Nepali Language	Parliamentary system,Constitutional republic,Republic,Federal republic,Democracy	/m/03wmm6s		91
Second Polish Republic	/m/03pn9				Warsaw				Poznan Voivodeship - II RP,Białystok Voivodeship - II RP,Warsaw Voivodeship,Lwów Voivodeship - II RP,Kielce Voivodeship - II RP,Autonomous Silesian Voivodeship - II RP,Kraków Voivodeship - II RP,Pomeranian Voivodeship - II RP,Nowogródek Voivodeship - II RP,Wołyń Voivodeship - II RP,Stanisławów Voivodeship - II RP,Capital city of Warsaw Voivodeship - II RP,Łódź Voivodeship - II RP,Warsaw Voivodeship - II RP,Wilno Voivodeship - II RP,Polesie Voivodeship - II RP,Tarnopol Voivodeship - II RP,Lublin Voivodeship - II RP		Polish Language				Lithuanian language,Masurian language,Polish Language,German Language,Kashubian Language,Ukrainian Language,Belarusian language,Yiddish Language		/m/059hx_s	Polish złoty,Polish marka	
South Africa	/m/0hzlz		SOUTH AFRICA	SF	Cape Town,Bloemfontein, Free State,Pretoria				KwaZulu-Natal,Northern Cape,North West,Mpumalanga,Gauteng,Western Cape,Free State,Limpopo,Eastern Cape	ZAR,South African rand	Venda Language,Tswana Language,English Language,Khoe languages,Telugu language,Ndebele Language,Sanskrit Language,Sotho, Northern Language,Gujarati Language,German Language,Arabic Language,Xhosa Language,Southern Sotho,Hebrew Language,Portuguese Language,Tsonga Language,Urdu Language,Sotho, Southern Language,Afrikaans Language,South African Sign Language,Swati Language,Tamil Language,Hindi Language,South African English,Nama Language,Greek Language,Zulu Language			za	Dutch Language,Xhosa Language,Tamil Language,Afrikaans Language,Phuthi language,English Language	Democracy,Constitution,Presidential system,Republic,Parliamentary system,Parliamentary republic	/m/0bm_3s4	South African pound	27
Kingdom of Hanover	/m/03nljq4																		
Finland	/m/02vzc		FINLAND	FI	Helsinki				Southern Finland,Western Finland,Lapland Province,Åland,Eastern Finland,Oulu Province	Euro,Bulgarian lev	Swedish Language,Finnish Language,Sami languages			ax,fi	Swedish Language,Saami, Inari Language,Saami, North Language,Finnish Language	Republic,Semi-presidential system,Parliamentary republic	/m/0d9fb8_	Finnish mark	
Honduras	/m/03h2c		HONDURAS	HO	Tegucigalpa				Choluteca,Francisco Morazán,Comayagua,Intibucá,Atlántida,Cortés,Gracias a Dios,Copán,Santa Bárbara,Lempira,Valle,Olancho,La Paz,Colón,El Paraíso,Ocotepeque,Bay Islands,Yoro	Honduran lempira	Spanish Language			hn	Spanish Language	Presidential system,Republic,Constitutional republic	/m/0bwnxth		
Kingdom of Aragon	/m/02srrt				Zaragoza														
Saxe-Weimar-Eisenach	/m/02sb2_																		
Indonesia	/m/03ryn		INDONESIA	ID	Jakarta				North Central Timor Regency,Jayawijaya Regency,Jembrana,Mentawai Islands,Polewali Mandar Regency,Magelang,Garut Regency,Yogyakarta,Pamekasan,Central Java,Kuantan Singingi,Labuhan Batu Regency,Padang Pariaman,Gianyar,Pekalongan Regency,Cirebon Regency,East Nusa Tenggara,Tanah Bumbu Regency,Serang,Trenggalek,Balangan Regency,Rembang Regency,Kupang Regency,North Aceh,Cilacap,South Solok,Gunung Kidul Regency,West Java,East Sumba Regency,Hulu Sungai Selatan Regency,Kudus,South Sumatra,Boyolali,North Lombok Regency,Lembata Regency,Madiun Regency,Hulu Sungai Utara Regency,Waropen Regency,Pandeglang,East Lombok Regency,Bener Meriah,Ngawi Regency,Tulungagung,Lamongan,Riau,Pemalang,Indragiri Hulu,Jepara Regency,Bojonegoro,Maluku,Blitar Regency,Central Sulawesi,Banyumas,Central Tapanuli Regency,Kendal Regency,Tabalong Regency,Asahan Regency,Buleleng,West Sulawesi,Sitaro Islands Regency,Aceh Besar,Subang Regency,Asmat Regency,South Aceh Regency,Nabire Regency,Grobogan Regency,Banyuwangi,West Irian Jaya,Central Sumba Regency,South Central Timor Regency,Semarang Regency,Karangasem,Nagekeo Regency,Banjar Regency,Lumajang Regency,Dharmasraya Regency,Badung,Bima Regency,Purwakarta Regency,Deli Serdang,Bogor Regency,Pelalawan,West Sumatra,Ciamis Regency,Aceh Tamiang Regency,South Tapanuli Regency,Serdang Bedagai Regency,Central Kalimantan,Tapin Regency,Simeulue,Regency of Buol,Lampung,Sumbawa Regency,Purworejo Regency,Wonosobo Regency,Southwest Sumba Regency,Belu Regency,Tanah Laut Regency,Central Lombok Regency,Soppeng Regency,West Kalimantan,Central Jakarta,Nganjuk,South East Sulawesi,Tanah Datar,Cianjur Regency,Klaten,Gresik Regency,Southeast Aceh Regency,South Sulawesi,Solok Regency,Lebak Regency,Ponorogo,Pakpak Bharat Regency,Temanggung Regency,Bengkulu,West Pasaman,Simalungun Regency,Bandung Regency,Keerom Regency,Mimika Regency,Pidie,Ngada Regency,Bintang Mountain Regency,Tasikmalaya Regency,Bekasi Regency,Wonogiri,Rokan Hilir,Magelang Regency,Sleman Regency,West Jakarta,East Manggarai Regency,Mappi Regency,Bengkalis,Klungkung,Riau Islands,Toba Samosir Regency,Karanganyar Regency,Magetan,Kebumen Regency,South Nias Regency,Aceh Jaya,Merauke Regency,Kampar Regency,Padang Lawas Regency,Limapuluh Koto,North Maluku,Jakarta,Alor Regency,East Flores Regency,Gorontalo,Brebes Regency,Mandailing Natal Regency,West Bandung,Bantul Regency,Boven Digoel Regency,Jambi,Kuningan Regency,Barito Kuala Regency,Tegal Regency,Demak Regency,Kulon Progo Regency,North Sulawesi,North Tapanuli Regency,Bangli,Pasaman,Indramayu Regency,Sukabumi Regency,Siak,North Jakarta,South Thousand Islands,Puncak Jaya Regency,Rote Ndao Regency,Central Aceh,Langkat Regency,West Manggarai Regency,East Kalimantan,Biak Numfor Regency,Tabanan,Papua,Agam Regency,Batang Regency,Jember,Maluku Islands,Yapen Waropen Regency,Banten,Bondowoso Regency,Bangkalan,Malang Regency,Sumedang Regency,South Kalimantan,Tuban Regency,Dairi Regency,Sarmi Regency,Sampang,Supiori Regency,South Pesisir,Bali,Sukoharjo Regency,Rokan Hulu,East Aceh,Southwest Aceh Regency,Tangerang Regency,Aceh Singkil Regency,Kediri Regency,Yahukimo Regency,Bireuën Regency,Ende Regency,Manggarai Regency,Nagan Raya Regency,West Nusa Tenggara,Pidie Jaya Regency,Bangka-Belitung,Dompu Regency,Purbalingga,Humbang Hasundutan Regency,Indragiri Hilir,Banjarnegara Regency,Thousand Islands,Jombang Regency,Situbondo,Kotabaru Regency,Pacitan,Paniai Regency,Blora Regency,West Lombok Regency,Tolikara Regency,North Padang Lawas Regency,Wajo Regency,Probolinggo Regency,Sidoarjo,South Jakarta,Hulu Sungai Tengah Regency,Sragen Regency,North Sumatra,Pasuruan Regency,Sijunjung,Bulukumba Regency,Nias Regency,Karawang Regency,Pati Regency,Karo Regency,West Sumbawa Regency,Jayapura Regency,Aceh Barat,Sikka,Gayo Lues,East Java,Majalengka Regency,Sumenep,North Thousand Islands,Aceh,Mojokerto Regency	Indonesian rupiah	Indonesian Language			id	Tobelo Language,Sunda Language,Javanese Language,Batak Languange,Dutch Language,Indonesian Language,Bali Language	Presidential system	/m/04h_0sy		62
Glorioso Islands	/m/035l8			GO															
Niger	/m/05cc1		NIGER	NG	Niamey				Niamey,Agadez Region,Tillabéri Department,Diffa Region,Tahoua Department,Zinder Region,Maradi Region,Dosso Department	West African CFA franc,CFA franc	Fula language,Hausa Language,French Language,Zarma Language,Tuareg languages,Kanuri language			ne	Hausa Language,French Language,Fula language,Djerma	Military junta,Parliamentary system,Presidential system			
Grand Duchy of Würzburg	/m/04f76ph																		
Madagascar	/m/04sj3		MADAGASCAR	MA	Antananarivo				Mahajanga Province,Toamasina Province,Fianarantsoa Province,Antananarivo Province,Toliara Province,Antsiranana Province	Malagasy ariary	English Language,Malagasy language,French Language			mg	French Language	Republic,Dictatorship			261
Lebanon	/m/04hqz		LEBANON	LE	Beirut				Baalbek District,Beqaa Governorate,Akkar,South Governorate,Mount Lebanon Governorate,Beirut Governorate,North Governorate,Nabatieh District	Lebanese lira	Lebanese Arabic,French Language,Arabic Language			lb	Arabic Language	Parliamentary system,Republic,Parliamentary republic	/m/04_8qnh		961
Confederate States of America	/m/020d5				Richmond,Montgomery,Danville														
Kingdom of Yugoslavia	/m/01hs96																		
The Bahamas	/m/0160w		BAHAMAS	BF	Nassau				Long Island,Rock Sound,Harbour Island,Freeport,Marsh Harbour,Mayaguana,Exuma,Acklins and Crooked Islands,Bimini,Inagua,Sandy Point,Kemps Bay,New Providence,Cat Island,Ragged Island,High Rock,Fresh Creek,Green Turtle Cay,Nichollstown and Berry Islands,San Salvador and Rum Cay	Bahamian dollar	English Language			bs	English Language	Parliamentary system,Constitutional monarchy	/m/0d8ndb_		
Yemen	/m/01z88t		YEMEN	YM	Sana'a				Lahij,Shabwah Governorate,Ta'izz,Dhamar Governorate,Ibb Governorate,Hadhramaut,Al Jawf Governorate,Al Hudaydah,Al Mahwit,Aden,Sana'a Governorate,Al Mahwit Governorate,Ibb,Lahij Governorate,Ta'izz Governorate,Abyan Governorate,Ma'rib,Al Bayda' Governorate,'Amran Governorate,Ad Dali' Governorate,Al Mahrah Governorate,Hajjah,Sa'dah,Hajjah Governorate	Yemeni rial	Arabic Language			ye	Arabic Language	Republic,Constitutional republic,Presidential system	/m/0fq78q8		967
Kingdom of Albania	/m/06857n				Durrës														
Bourbon Spain	/m/05pq3_																		
Iudaea	/m/065sh7																		
Haiti	/m/03gyl		HAITI	HA	Port-au-Prince				Nord-Est Department,Nippes Department,Sud Department,Centre Department,Ouest Department,Nord Department,Nord-Ouest Department,Artibonite Department,Sud-Est Department,Grand'Anse Department	Haitian gourde,Hanoi	French Language,Haitian Creole French Language			ht	Haitian Creole French Language,French Language	Presidential system,Semi-presidential system,Parliamentary republic	/m/0d9ggc4		
Bolivia	/m/0165v		BOLIVIA	BL	La Paz,Sucre				Beni Department,Oruro Department,Tarija Department,Pando Department,La Paz Department,Chuquisaca Department,Potosí Department,Cochabamba Department,Santa Cruz Department	Bolivian boliviano,US$,Bolivian peso	Movima language,Tapieté Language,Itonama Language,Pacahuara language,Baure Language,Sirionó language,Leco language,Mòoré Language,Canichana language,Spanish Language,Cayubaba language,Uru language,Cavineña Language,Reyesano language,Kallawaya,Wichí Lhamtés Nocten,Araona Language,Chácobo language,Tacana language,Ayoreo language,Chiquitano language,Quechua,Puquina Language,Aymara language			bo	Spanish Language,Puquina Language,Aymara language,Quechua,Kallawaya	Republic,Presidential system	/m/0d7q9d1	Bolivian peso	591
The Bronx	/m/01531																		
Republika Srpska	/m/01yw4d				Sarajevo,Banja Luka					Bosnia and Herzegovina convertible mark	Bosnian language,Croatian language,Serbian language					Parliamentary system			
Finnish Language	/m/01gp_d																		
Srivijaya	/m/023kxh				Palembang														
Åland	/m/014mxp				Mariehamn					Euro,Swedish krona				ax			/m/0d9g45b		
Ashmore and Cartier Islands	/m/0n3z			AT						Australian dollar									
Armenian SSR	/m/021hrn																		
Wessex	/m/084gz				Winchester														
Rwanda	/m/06dfg		RWANDA	RW	Kigali				North Province, Rwanda,East Province, Rwanda,South Province, Rwanda,Kigali,West Province, Rwanda	Rwandan franc	English Language,Kinyarwanda language,French Language			rw	Kinyarwanda language,Swahili Language,English Language,French Language	Republic		German East African rupie	
Philippines	/m/05v8c		PHILIPPINES	RP	Manila				Manila,Lucena City,Naga City,San Jose City,Sorsogon,Cabanatuan City,Bukidnon,Bohol,Camarines Norte,Nueva Ecija,Lipa City,Surigao City,Legazpi City,Pangasinan,Pasay City,Aklan,Gingoog City,Dipolog City,Tangub City,Eastern Samar,South Cotabato,Antique province,Cavite City,Cebu City,Bacolod City,Iligan City,Olongapo City,Surigao del Sur,Iloilo City,Agusan del Sur,Catanduanes,Lapu-Lapu City,Iloilo,Misamis Oriental,Pampanga,Angeles City,Dagupan City,Palawan,Batangas City,Basilan,Bais City,Oriental Mindoro,Cagayan de Oro,Bataan,Zamboanga del Norte,Occidental Mindoro,Quezon,Dumaguete City,Benguet,Mountain Province,Quirino,Puerto Princesa City,Zamboanga City,Nueva Vizcaya,Samar,Northern Samar,Bago City,Agusan del Norte,San Carlos City,Camarines Sur,Zamboanga del Sur,Tacloban City,Baguio City,Davao Oriental,Roxas City,Leyte,Tarlac,Bulacan,Romblon, Romblon,Davao del Norte,Ilocos Norte,Trece Martires City,Ormoc City,Tagaytay City,Surigao del Norte,Quezon City,Lanao del Norte,Batanes,Silay City,Tawi-Tawi,Iriga City,Palayan City,Southern Leyte,Isabela province,Danao City,Laguna province,Mandaue City,Davao del Sur,Tagbilaran City,Calbayog City,Ozamiz City,Caloocan City,Zambales,Toledo City,Cotabato City,La Carlota City,Lanao del Sur,Islamic City of Marawi,Albay,Cotabato,Dapitan City,Siquijor,Maguindanao,Masbate,San Pablo City,Misamis Occidental,Cavite,La Union,Rizal,Kalinga-Apayao,Butuan City,Cadiz City,Negros Occidental,Laoag City,Oroquieta City,Pagadian City,Marinduque,Sulu,Abra province,General Santos City,Kauswagan,Capiz,Ilocos Sur,Sultan Kudarat,Cagayan,Negros Oriental,Canlaon City,Aurora province,Camiguin,Cebu,Batangas,Ifugao,Davao Region	Philippine peso	Tagalog language,English Language,Filipino language			tv,ph,edu	English Language	Constitutional republic,Presidential system,Republic	/m/0478l7y		
Namibia	/m/05bmq		NAMIBIA	WA	Windhoek				Khomas Region,Omaheke,Ohangwena Region,Erongo Region,Karas Region,Caprivi Region,Omusati,Oshikoto Region,Otjozondjupa,Kunene Region,Oshana,Hardap Region,Okavango Region	Namibian dollar	English Language			na	English Language,Dutch Language,Afrikaans Language	Republic			
Jamaica	/m/03_r3		JAMAICA	JM	Kingston				Hanover Parish,Trelawny Parish,Saint Andrew Parish,Manchester Parish,Saint Thomas Parish,Portland Parish,Saint Ann Parish,Saint Mary Parish,Saint Catherine Parish,Clarendon Parish,Saint James Parish,Westmoreland Parish,Kingston Parish,Saint Elizabeth Parish	Jamaican pound,Jamaican dollar	English Language			jm	English Language	Constitutional monarchy,Parliamentary system			
Northland State	/m/02z473c				Laascaanood					Somali shilling	Somali Language,Arabic Language			so					
Jammu and Kashmir	/m/0djgt																		
Senegal	/m/06srk		SENEGAL	SG	Dakar				Tambacounda Region,Kaolack Region,Fatick Region,Kolda Region,Saint-Louis Region,Dakar Region,Diourbel Region,Matam Region,Thiès Region,Louga Region,Ziguinchor Region	West African CFA franc,CFA franc	French Language			sn	French Language,Fula language	Semi-presidential system	/m/0d8sk8j		
Chad	/m/01p1b		CHAD	CD	N'Djamena				Logone Oriental Prefecture,Salamat Prefecture,Bourkou-Ennedi-Tibesti Prefecture,Tandjilé Prefecture,Biltine Prefecture,Moyen-Chari Prefecture,Ouaddaï Prefecture,Mayo-Kébbi Prefecture,Chari-Baguirmi Prefecture,Lac Prefecture,Guéra Prefecture,Logone Occidental Prefecture,Kanem Prefecture,Batha Prefecture	Central African CFA franc	French Language,Arabic Language			td	Fula language,French Language	Parliamentary republic,Presidential system,Dictatorship,Republic			
German Democratic Republic	/m/03f2w				Berlin					East German mark	German Language				German Language		/m/0d8bsnt	East German mark	
Bangladesh	/m/0162b		BANGLADESH	BG	Dhaka				Narsingdi District,Sherpur District,Tangail District,Faridpur District,Mymensingh District,Munshiganj District,Kurigram District,Khulna District,Narayanganj District,Rajbari District,Khagrachari District,Satkhira District,Shariatpur District,Chandpur District,Narail District,Habiganj District,Feni District,Thakurgaon District,Bagerhat District,Jamalpur District,Barisal District,Sirajganj District,Naogaon District,Bogra District,Pirojpur District,Comilla District,Brahmanbaria District,Barisāl Division,Dhaka,Gazipur District,Khulna Division,Chittagong,Bhola District,Sylhet Division,Netrokona District,Kushtia District,Rajshahi District,Dhaka Division,Magura District,Sylhet District,Moulvibazar District,Gaibandha District,Nawabganj District,Dinajpur District, Bangladesh,Bandarban District,Chuadanga District,Panchagarh District,Noakhali District,Pabna District,Gopalganj District,Rangpur District,Cox's Bazar District,Natore District,Jhenaidah District,Jaipurhat District,Jhalkathi District,Jessore District,Manikganj District,Patuakhali District,Meherpur District,Rangamati District,Barguna District,Chittagong Division,Kishoreganj District,Nilphamari District,Lalmonirhat District,Madaripur District,Sunamganj District,Lakshmipur District,Rajshahi Division	Bangladeshi taka	Bengali Language			bd	Mundari Language,Bengali Language	Parliamentary system,Parliamentary republic	/m/048sgkt		880
Western Sahara	/m/082qk		WESTERN SAHARA	WI	El Aaiún					Moroccan dirham	Hassaniya,Spanish Language,Berber languages,French Language,Arabic Language			eh	Arabic Language	Semi-presidential system		Spanish peseta	212
Caliphate of Córdoba	/m/04q7yp				Córdoba														
Württemberg	/m/0sw1x																		
Vatican City	/m/07ytt		HOLY SEE (VATICAN CITY STATE)	VT						Euro	Latin Language,Italian Language			va	English Language,Italian Language,French Language,Spanish Language,Portuguese Language,German Language	Theocracy,Absolute monarchy	/m/0bfpczz	San Marinese lira,Vatican lira	
Muscovy	/m/0c83z																		
Babylonia	/m/0cn3b														Akkadian language				
Kyrgyzstan	/m/016t91		KYRGYZSTAN	KG	Bishkek				Osh Province,Issyk Kul Province,Talas Province,Chuy Province,Bishkek,Naryn Province,Jalal-Abad Province,Batken Province	Kyrgyzstani som	Kyrgyz language,Russian Language			kg	Russian Language	Presidential system,Parliamentary republic,Republic			
Dominica	/m/027nb		DOMINICA	DO	Roseau				Saint Joseph Parish,Saint Patrick Parish,Saint David Parish,Saint Andrew Parish,Saint Paul Parish,Saint Luke Parish,Saint George Parish,Saint Peter Parish,Saint John Parish,Saint Mark Parish	East Caribbean dollar	English Language,French Language,Antillean Creole			dm	English Language	Parliamentary republic			
Latvia	/m/04g5k		LATVIA	LG	Riga				Saldus District,Jēkabpils District,Cēsis District,Madona District,Ventspils District,Liepāja District,Ludza District,Valka District,Valmiera District,Alūksne District,Rēzekne,Dobele District,Liepāja,Bauska District,Balvi District,Rēzekne District,Riga,Talsi District,Kraslava District,Rīga District,Tukums District,Daugavpils District,Ventspils,Preiļi District,Daugavpils,Kuldīga District,Gulbene District,Aizkraukle District,Ogre District,Limbaži District	Latvian lats	Latvian Language			lv		Parliamentary republic			
Montserrat	/m/04wcf		MONTSERRAT	MH	Plymouth,Brades,Plymouth, Montserrat				Saint Georges Parish,Saint Peter Parish,Saint Anthony Parish	East Caribbean dollar	English Language			ms	English Language				
Antarctica	/m/0jfx		ANTARCTICA	AY												Antarctic Treaty System			
Fiji	/m/02wt0		FIJI	FJ	Suva				Eastern Division, Fiji,Central Division, Fiji,Western Division, Fiji,Northern Division, Fiji	Fijian pound,Fijian dollar	Fijian Language,English Language,Hindustani language,Fiji Hindi			fj	English Language,Tamil Language	Republic,Military junta,Parliamentary republic,Military dictatorship	/m/0478ldb	Fijian pound	
Iraqi Kurdistan	/m/0329by				Arbil					Iraqi dinar,Turkish lira,Turkish new lira,US$	Kurdish language,Azerbaijani language,Arabic Language,Assyrian Neo-Aramaic Language					Parliamentary system			
Ecuador	/m/02k1b		ECUADOR	EC	Quito				Pastaza Province,Cañar Province,Pichincha Province,Chimborazo Province,Pastaza River,Guayas Province,Sucumbíos Province,Tungurahua Province,Cotopaxi Province,Orellana Province,Napo Province,Bolívar Province,Los Ríos Province,Morona-Santiago Province,Azuay Province,Loja Province,Galápagos Province,El Oro Province,Zamora-Chinchipe Province,Imbabura Province,Carchi Province,Esmeraldas Province,Manabí Province	US$,Ecuadorian sucre	Spanish Language,Quechua			ec	Spanish Language	Presidential system,Republic	/m/0d9dvqy	Ecuadorian sucre	
Rashidun Caliphate	/m/02wvgjs				Medina,Kufa											Caliphate			
Grand Duchy of Tuscany	/m/0327fc				Florence														
Greenland	/m/035v3		GREENLAND	GL	Nuuk					Danish krone	Danish Language,Greenlandic language			gl			/m/0d7w3yx		
Grand Duchy of Hesse	/m/0263n6m																		
Netherlands	/m/059j2		NETHERLANDS	NL	Amsterdam				Gelderland,Drenthe,Goes,South Holland,Utrecht,Amsterdam,Overijssel,Groningen,North Holland,Friesland,Curaçao,North Brabant,De Bilt,Limburg,The Hague,Zeeland,Netherlands Antilles,Flevoland,Amstelveen	Euro,Aruban florin,Netherlands Antillean gulden	Dutch Language			nl	Dutch Language,Frisian language	Parliamentary system,Constitutional monarchy,Monarchy	/m/0d89b8b	Dutch gulden	
Papal States	/m/0g6k2				Rome					Papal States scudo									
Burundi	/m/0169t		BURUNDI	BY	Bujumbura				Ruyigi Province,Makamba Province,Kirundo Province,Rutana Province,Kayanza Province,Ngozi Province,Bujumbura Rural Province,Cibitoke Province,Cankuzo Province,Karuzi Province,Bubanza Province,Gitega Province,Mwaro Province,Muramvya Province,Bururi Province,Muyinga Province	Burundian franc	Kirundi language,Swahili Language,Kanuri language,French Language			bi	Swahili Language,French Language	Republic		German East African rupie	
Botswana	/m/0166v		BOTSWANA	BC	Gaborone				Ghanzi District,South-East District,Kgalagadi,Kweneng District,Central District,Kgatleng District,Southern District,North-East District,North-West District	Botswana pula	Tswana Language,English Language			bw	English Language,Afrikaans Language	Parliamentary republic			
Somaliland	/m/0dkly				Hargeisa					Somaliland shilling	Somali Language,English Language,Arabic Language					Constitutional republic,Representative democracy,Presidential system,Republic			
Republic of Serbian Krajina Government in Exile	/m/09dbj3															Government in exile			
Kingdom of Montenegro	/m/08_lvz									Montenegrin Perper									
Montenegro	/m/056vv			MJ	Podgorica					Euro	Croatian language,Albanian language,Bosnian language,Montenegrin language,Serbian language			yu,me		Parliamentary republic,Semi-presidential system,Republic		Yugoslav dinar	
Kuwait	/m/047yc		KUWAIT	KU	Kuwait City				Al Wafrah,Al Asimah,Al Jahra,Al Ahmadi	Kuwaiti dinar	Arabic Language,English Language			kw	Arabic Language	Monarchy,Emirate,Constitutional monarchy,Constitution		Indian rupee	
Columbus	/m/01smm																		
Homerton University Hospital	/m/0cj6_g																		
Roman Empire	/m/06cmp				Milan,Constantinople,Ravenna,Rome,İznik,Nicomedia				Hispania,Africa Proconsularis										
Southern Sudan	/m/05rznz									Sudanese pound									
Québec	/m/0694j																		
Kingdom of Bulgaria	/m/03bxbql				Sofia														
First French Empire	/m/01flgk																		
Swedish Empire	/m/01fvhp				Stockholm														
Norway	/m/05b4w		NORWAY	NO	Oslo				Finnmark,Sør-Trøndelag,Hedmark,Nord-Trøndelag,Svalbard and Jan Mayen,Østfold,Troms,Rogaland,Akershus,Nordland,Bouvet Island,Vest-Agder,Vestfold,Oslo,Hordaland,Sogn og Fjordane,Buskerud,Møre og Romsdal,Telemark,Aust-Agder,Oppland	Norwegian krone	Nynorsk,Sami languages,Bokmål,Norwegian Language			bv,no,sj	Norwegian Language	Monarchy,Parliamentary system,Constitutional monarchy	/m/0d7qqv5		47
Konbaung dynasty	/m/051px2				Shwebo,Sagaing,Amarapura,Mandalay,Ava											Monarchy			
Deutsches Reich	/m/01qlyt																		
French Guiana	/m/02x21		FRENCH GUIANA	FG	Cayenne				French Guiana										
England	/m/02jx1				London				South West England,Chilton,Dominion of New England,West Midlands,North East England,Little Gidding,East of England,South East England,Greater London,Yorkshire and the Humber,North West England,East Midlands	UK £	English Language			uk	British English,Early Modern English,Old English language	Devolution,Constitutional monarchy			
Song Dynasty	/m/0fpv5				Hangzhou,Kaifeng														
São Tomé and Príncipe	/m/0j681		SAO TOME AND PRINCIPE	TP	São Tomé				Príncipe,São Tomé Island	São Tomé and Príncipe escudo,São Tomé and Príncipe dobra	Portuguese Language			st	Portuguese Language	Republic,Representative democracy,Semi-presidential system	/m/0773_w5	São Tomé and Príncipe escudo	
Palau	/m/05tr7			PS						US$	Japanese Language,English Language,Palauan Language			pw		Presidential system,Representative democracy,Republic			
Dominican Republic	/m/027rn		DOMINICAN REPUBLIC	DR	Santo Domingo				Duarte,San José de Ocoa,El Seibo,María Trinidad Sánchez,La Vega,Puerto Plata,Barahona,Espaillat,Peravia,Sánchez Ramírez,Santiago,Monte Cristi,Elías Piña,Salcedo,Hato Mayor,Monte Plata,Dajabón,Independencia,Samaná,Santiago Rodríguez,La Romana,San Juan,Azua,Distrito Nacional,Monseñor Nouel,San Cristóbal,Santo Domingo,Baoruco,La Altagracia,San Pedro de Macorís,Pedernales,Valverde	Dominican peso	Spanish Language			do	Spanish Language	Democracy,Representative democracy,Presidential system			
Pahlavi dynasty	/m/01xv6t				Tehran											Government in exile			
Oldenburg	/m/022gbs																		
Iran	/m/03shp		"IRAN, ISLAMIC REPUBLIC OF"	IR	Tehran				Chaharmahal and Bakhtiari Province,Khūzestān Province,South Khorasan Province,Hamadān Province,Lorestān Province,Hormozgān Province,Markazi Province,Semnān Province,Kurdistan Province,Bushehr Province,Osku County,North Khorasan Province,Sistan and Baluchistan Province,Yazd Province,Kermanshah Province,Qom Province,Māzandarān Province,Qazvīn Province,Zanjan Province,Eşfahān Province,Razavi Khorasan Province,Tehrān Province,East Azarbaijan Province,Golestān Province,Khorasan,Kohgiluyeh and Buyer Ahmad Province,Fārs Province,Ardabīl Province,Kermān Province,West Azarbaijan Province,Gīlān Province,Īlām Province	Iranian rial	Gilaki Language,Kurdish language,Caspian languages,Mazanderani Language,Azerbaijani language,Persian Language			ir	Persian Language	Theocracy,Islamic republic,Dictatorship			98
Uruguay	/m/07twz		URUGUAY	UY	Montevideo				Durazno Department,Tacuarembó Department,Florida Department,Treinta y Tres Department,Soriano Department,Rocha Department,Montevideo Department,Rivera Department,Artigas Department,Canelones Department,Flores Department,Río Negro Department,Salto Department,Paysandú Department,Maldonado Department,San José Department,Lavalleja Department,Colonia Department,Cerro Largo Department	Uruguayan peso	Spanish Language,Riverense Portuñol language			uy	Spanish Language	Presidential system,Republic	/m/0d9dz_j		598
Serbia and Montenegro	/m/06swt				Belgrade						Serbian language,Serbo-Croatian				Serbian language,Hungarian,Serbo-Croatian,Bosnian language,Albanian language	Federation,Confederation	/m/0bf4q7q	German mark,Euro,Yugoslav dinar	
Belarus	/m/0163v		BELARUS	BO	Minsk				Minsk Province,Homiel Voblast,Vitsebsk Voblast,Brest Voblast,Hrodna Voblast	Belarusian ruble	Belarusian language,Russian Language			by	Russian Language	Dictatorship,Presidential system			
Republic of Macedonia	/m/0bjv6		"MACEDONIA, THE FORMER YUGOSLAV REPUBLIC OF"	MK	Skopje				Brvenica municipality,Mogila municipality,Karbinci municipality,Šuto Orizari municipality,Zajas municipality,Rankovce municipality,Resen municipality,Debar,Sopotnica,Petrovec municipality,Veles,Dojran municipality,Gevgelija,Kratovo,Novaci municipality,Tetovo,Tearce municipality,Vinica,Jegunovce,Vitolište,Vratnica,Saraj municipality,Bogdanci,Štip,Struga,Zletovo,Berovo,Makedonska Kamenica,Ohrid,Negotino,Strumica,Aračinovo municipality,Oslomej municipality,Rosoman municipality,Bosilovo municipality,Krivogastani,Kisela Voda municipality,Kamenjane,Miravci,Ilinden municipality,Sveti Nikole municipality,Makedonski Brod,Kosel,Bogovinje municipality,Zrnovci municipality,Bitola,Prilep,Radoviš,Kumanovo,Zelenikovo municipality,Lipkovo municipality,Dolneni municipality,Valandovo,Kukurečani,Kruševo,Capari,Demir Hisar,Gostivar,Kavadarci,Vasilevo municipality,Plasnica municipality,Kriva Palanka,Gradsko,Novo Selo municipality,Probištip,Drugovo municipality,Lozovo municipality,Demir Kapija	Macedonian denar	Macedonian Language,Romani language,Serbian language,Romanian, Macedo Language,Turkish Language,Albanian language			mk	Torlakian	Parliamentary republic			
Uganda	/m/07tp2		UGANDA	UG	Kampala				Kumi District,Mpigi District,Kotido District,Masindi,Kalangala District,Bundibugyo District,Bushenyi District,Nakapiripirit District,Kitgum District,Mbarara,Kabarole District,Mbale District,Katakwi District,Nakasongola District,Apac District,Pallisa District,Tororo District,Yumbe District,Jinja District,Sembabule District,Mubende District,Moyo District,Bunyoro,Mukono District,Kanungu District,Rakai District,Gulu District,Iganga District,Wakiso District,Ntungamo District,Mayuge District,Soroti District,Pader District,Kiboga District,Kamuli District,Masaka District,Busia District,Kaberamaido District,Lira,Arua District,Sironko District,Nebbi District,Kapchorwa District,Kibaale District,Kisoro,Kasese,Rukungiri District,Hoima District,Kayunga District,Kyenjojo,Moroto District,Adjumani District,Bugiri District,Kamwenge District,Kampala District,Kabale District,Luwero District	Ugandan shilling,East African shilling	English Language,Swahili Language			ug	English Language,Swahili Language	Republic,Democracy			
Republic of the South Moluccas	/m/0809tnt				Ambon City											Government in exile			
United Kingdom	/m/07ssc		UNITED KINGDOM	UK	London				Anguilla,Tameside,London Borough of Lewisham,Banbridge,Manchester,North Lincolnshire,Northern Ireland,London Borough of Waltham Forest,Derbyshire,Angus,London Borough of Newham,Metropolitan Borough of Dudley,Royal Borough of Windsor and Maidenhead,County Down,Gibraltar,Poole,Nottinghamshire,London Borough of Wandsworth,London Borough of Croydon,Sefton,Torfaen,Montserrat,Metropolitan Borough of Rotherham,West Yorkshire,Kirklees,Metropolitan Borough of Stockport,London Borough of Barnet,Trafford,Larne,London Borough of Bexley,London Borough of Hillingdon,Northumberland,Cookstown District Council,Oxford,Newtownabbey,Luton,Blackburn with Darwen,Reading,Caerphilly,Middlesbrough,Norfolk,Oxfordshire,South Oxfordshire,County Durham,Scotland,South Ayrshire,London Borough of Haringey,Plymouth,Pembrokeshire,London Borough of Southwark,Derry,Shetland Islands,Omagh,Portsmouth,Nottingham,Cheshire,North Down Borough Council,Kent,South Georgia and the South Sandwich Islands,Leicester,London Borough of Redbridge,North Yorkshire,South Tyneside,Warwickshire,Woking,Moyle District Council,Lisburn,Metropolitan Borough of Walsall,London Borough of Islington,Belfast,West Lothian,Aberdeenshire,England,Cumbria,Staffordshire,Cardiff,London Borough of Camden,Armagh,Billericay,Turks and Caicos Islands,London Borough of Tower Hamlets,Carrickfergus,Wiltshire,Denbighshire,Milton Keynes,City of Wakefield,North Somerset,Buckinghamshire,Metropolitan Borough of Gateshead,Southampton,Metropolitan Borough of Wirral,North Tyneside,Fife,Midlothian,London Borough of Havering,Kingston upon Hull,East Dunbartonshire,Metropolitan Borough of Bury,Borehamwood,Redcar and Cleveland,East Sussex,Renfrewshire,Vale of Glamorgan,Calderdale,Peterborough,Sheffield,Royal Borough of Kingston upon Thames,Leicestershire,Rutland,London Borough of Bromley,Slough,Metropolitan Borough of Barnsley,Isle of Wight,Herm,Alderley Edge,Suffolk,Merthyr Tydfil,Magherafelt,Inverclyde,London Borough of Enfield,Glasgow,Essex,Blackpool,Dundee,Blaenau Gwent,Ards Borough Council,Wolverhampton,Neath Port Talbot,Pitcairn Islands,Bradford,Stockton-on-Tees,Ballymoney,London Borough of Hackney,Halton,Bracknell Forest,Darlington,Cookstown,Herefordshire,Coleraine,Perth and Kinross,Rhondda Cynon Taff,North East Lincolnshire,County Londonderry,Isle of Man,Dumfries and Galloway,Swansea,Metropolitan Borough of Bolton,Metropolitan Borough of Rochdale,Telford and Wrekin,Lincolnshire,Jersey,Bridgend,City of Salford,Gwynedd,Falkirk,East Riding of Yorkshire,Newport,Comberton,Channel Islands,Clackmannanshire,Metropolitan Borough of St Helens,Cornwall,Down,Flintshire,Southend-on-Sea,Somerset,Worcestershire,Torbay,Shropshire,Aberdeen,Conwy,Highland,Edinburgh,Dungannon and South Tyrone Borough Council,Metropolitan Borough of Solihull,Dorset,Bournemouth,Warrington,Gloucestershire,Metropolitan Borough of Doncaster,Powys,Newcastle upon Tyne,London Borough of Hounslow,Orkney Islands,Devon,Strabane,London Borough of Merton,Great Warford,City of Westminster,Metropolitan Borough of Oldham,Fermanagh District Council,London Borough of Greenwich,Sandwell,Cambridgeshire,Hartlepool,Medway,London Borough of Barking and Dagenham,Bath and North East Somerset,South Lanarkshire,Outer Hebrides,East Ayrshire,West Sussex,Hertfordshire,Antrim Borough Council,Wrexham,Newry and Mourne District Council,Limavady,East Lothian,Coventry,London Borough of Brent,Wokingham,North Ayrshire,London Borough of Richmond upon Thames,Moray,Castlereagh Borough Council,Hampshire,Brighton & Hove,Anglesey,Northamptonshire,East Renfrewshire,Surrey,Liverpool,City of Bradford,Isles of Scilly,West Dunbartonshire,London Borough of Sutton,London Borough of Ealing,Monmouthshire,Ballymena,Bedfordshire,Scottish Borders,Carmarthenshire,Stoke-on-Trent,York,Thurrock,Craigavon,Stirling,London Borough of Harrow,South Gloucestershire,Wales,Guernsey,Lancashire,Metropolitan Borough of Knowsley,Swindon,West Berkshire,Derby,City of Sunderland,Argyll and Bute,Stockport,North Lanarkshire,City of Leeds,London Borough of Hammersmith and Fulham,London Borough of Lambeth,Metropolitan Borough of Wigan,Bristol,Birmingham,Royal Borough of Kensington and Chelsea,Ceredigion,City of London,County Antrim	Cayman Islands dollar,East Caribbean dollar,UK £,New Zealand dollar,Euro,Bermuda dollar,Saint Helena pound,Falkland Islands pound	Welsh Language,Scottish Gaelic language,English Language			eu,gb,uk	Scottish Gaelic language,English Language,Esperanto Language,Scots Language,Irish,Welsh Language	Parliamentary system,Constitutional monarchy	/m/03k0ds8		44
Abbasid Caliphate	/m/0d7c8				Baghdad											Caliphate			
Paraguay	/m/05v10		PARAGUAY	PA	Asunción				Central Department,Guairá Department,Caaguazú Department,Canindeyú Department,Boquerón Department,Alto Paraguay Department,Cordillera Department,Amambay Department,San Pedro Department,Itapúa Department,Ñeembucú Department,Presidente Hayes Department,Misiones Department,Paraguarí Department,Caazapá Department,Concepción Department,Alto Paraná Department	Paraguayan guaraní,Paraguayan peso	Guaraní language,Spanish Language,Paraguayan Guaraní			py	Ukrainian Language,Spanish Language	Constitutional republic,Republic,Presidential system	/m/0d9dylb		
Russia	/m/06bnz		RUSSIAN FEDERATION	RS	Moscow				Kurgan Oblast,Vologda Oblast,Dagestan,Khabarovsk Krai,Sakha Republic,Northwestern Federal District,Udmurtia,Urals Federal District,Kalmykia,Yaroslavl Oblast,Kaluga Oblast,Novgorod Oblast,Chelyabinsk Oblast,Komi Republic,Ulyanovsk Oblast,Murmansk Oblast,Jewish Autonomous Oblast,Lipetsk Oblast,Kuril Islands,Primorsky Krai,Tver Oblast,Saint Petersburg,Magadan Oblast,Central Federal District,Kaliningrad Oblast,Yoshkar-Ola,Samara Oblast,Koryak Autonomous Okrug,Moscow Oblast,Taymyr Autonomous Okrug,Tyumen Oblast,Volgograd Oblast,Karachay-Cherkessia,Mari El,Altai Republic,Tambov Oblast,Orenburg Oblast,Altai Krai,Ryazan Oblast,Krasnodar Krai,Siberian Federal District,Buryatia,Saratov Oblast,Nenets Autonomous Okrug,Tuva,Yamalo-Nenets Autonomous Okrug,Bashkortostan,Ingushetia,Voronezh Oblast,Kostroma Oblast,Kabardino-Balkaria,Mordovia,Novosibirsk Oblast,Penza Oblast,Kemerovo Oblast,Krasnoyarsk Krai,Ust-Orda Buryat Autonomous Okrug,Nizhny Novgorod Oblast,Chechnya,Khanty-Mansi Autonomous Okrug,Stavropol Krai,Pskov Oblast,North Ossetia-Alania,Far Eastern Federal District,Astrakhan Oblast,Arkhangelsk Oblast,Kursk Oblast,Kamchatka Oblast,Perm Krai,Volga Federal District,Sakhalin Oblast,Chukotka Autonomous Okrug,Rostov Oblast,Southern Federal District,Ivanovo Oblast,Republic of Karelia,Agin-Buryat Autonomous Okrug,Omsk Oblast,Khakassia,Moscow,Vladimir Oblast,Tatarstan,Leningrad Oblast,Chuvashia,Irkutsk Oblast,Amur Oblast,Adygea,Sverdlovsk Oblast,Belgorod Oblast,Evenk Autonomous Okrug,Smolensk Oblast,Bryansk Oblast,Kirov Oblast,Chita Oblast,Tula Oblast,Tomsk Oblast,Oryol Oblast	Russian ruble	Russian Language			su,.рф,ru	Russian Language,Yiddish Language,Ukrainian Language,Tatar Language,Chuvash Language	Presidential system,Semi-presidential system,Republic	/m/0bwnwv9		7
Sierra Leone	/m/06s_2		SIERRA LEONE	SL	Freetown				Southern Province,Northern Province,Western Area,Eastern Province	Sierra Leonean leone	Bengali Language,English Language			sl	Krio Language,Mende Language,Themne Language,English Language,Fula language	Constitutional republic,Republic,Constitutional democracy			
Kingdom of Hungary	/m/03l5m1				Esztergom,Debrecen,Bratislava,Budapest,Székesfehérvár														
Royal Lao Government in Exile	/m/03gxwc5															Government in exile			
Scotland	/m/06q1r				Edinburgh					UK £	Goidelic languages,Scottish Gaelic language,Scottish English			uk	Old English language,British English	Devolution,Constitutional monarchy	/m/0b_kldy,/m/0d8c1kr,/m/0b_kvm1,/m/0d8c0sc,/m/0b_kvq7		
Romania	/m/06c1y		ROMANIA	RO	Bucharest				Caraş-Severin County,Olt County,Galaţi County,Ialomiţa County,Vrancea County,Teleorman County,Dolj County,Bihor County,Hunedoara County,Bucharest,Constanţa County,Vâlcea County,Satu Mare County,Mehedinţi County,Alba County,Maramureş County,Argeş County,Neamţ County,Vaslui County,Covasna County,Harghita County,Gorj County,Botoşani County,Sălaj County,Mureş County,Buzău County,Iaşi County,Brăila County,Timiş County,Braşov County,Dâmboviţa County,Tulcea County,Suceava County,Covurlui,Ilfov County,Prahova County,Cluj County,Arad County,Bacău County,Călăraşi County,Giurgiu County,Bistriţa-Năsăud County,Sibiu County	Romanian leu	Romanian Language			ro,eu	Hungarian,Torlakian,Romanian Language,Ukrainian Language,Romani language	Republic,Semi-presidential system	/m/063pscp		
Croatia	/m/01pj7		CROATIA	HR	Zagreb				Dubrovnik-Neretva County,Zagreb County,Vukovar-Syrmia County,Karlovac County,Zadar County,Međimurje County,Požega-Slavonia County,Primorje-Gorski Kotar County,Varaždin County,Split-Dalmatia County,Sisak-Moslavina County,Šibenik-Knin County,Krapina-Zagorje County,Virovitica-Podravina County,Koprivnica-Križevci County,Lika-Senj County,Brod-Posavina County,Osijek-Baranja County,Zagreb,Bjelovar-Bilogora County,Istria County	Croatian dinar,Croatian kuna	Croatian language			hr	Hungarian	Parliamentary republic	/m/0d9d3b4	Croatian dinar	
Saudi Arabia	/m/01z215		SAUDI ARABIA	SA	Riyadh				Ar Riyad Province,Western Province,Al Hudud ash Shamaliyah,Al Bahah Province,Ha'il Province,Jizan Province,Ash Sharqiyah Province,Al Qasim,Tabuk Province,Al Jawf Province,Al Madinah	Saudi riyal	Arabic Language			sa	Arabic Language	Absolute monarchy	/m/04q5_60		
Kingdom of Great Britain	/m/014tss																		
Independent Republic of Zulia	/m/0417l2t				Maracaibo					Venezuelan bolívar	Spanish Language								
Classical Athens	/m/03nmzqx				Athens						Ancient Greek					Athenian democracy			
Saint-Pierre and Miquelon	/m/06s4c		SAINT PIERRE AND MIQUELON	SB	Saint-Pierre					Euro,Dollar sign,Canadian dollar	French Language			pm					
Liechtenstein	/m/04j53		LIECHTENSTEIN	LS	Vaduz				Eschen,Triesenberg,Ruggell,Schaan,Balzers,Schellenberg,Triesen,Gamprin,Vaduz,Mauren,Planken	Austrian krone,Swiss franc,Austro-Hungarian krone	German Language			li	German Language	Constitutional monarchy,Monarchy,Parliamentary system,Principality		Austro-Hungarian krone	
Grand Duchy of Finland	/m/02zbz5				Turku,Helsinki														
Republic of Genoa	/m/02q14r																		
Russian Provisional Government	/m/0276wv																/m/0d7qjy4		
Sicily	/m/06w92																		
Israel	/m/03spz		ISRAEL	IS	East Jerusalem,Jerusalem				Center District,South District,North District,Haifa District,Jerusalem District,Tel Aviv District	Israeli new sheqel	Hebrew Language,Arabic Language,English Language			il	Hebrew languages,Hebrew Language,Lojban,Ladino Language,Arabic Language,Yiddish Language	Republic,Parliamentary system	/m/03k0fx9	Israeli pound,Israeli sheqel	972
Jordan	/m/03__y		JORDAN	JO	Amman				Tafilah Governorate,Ajlun Governorate,Karak Governorate,Aqaba Governorate,Irbid Governorate,Jerash Governorate,Balqa,Zarqa Governorate,Mafraq Governorate,Ma'an Governorate,Amman Governorate,Madaba Governorate	Jordanian dinar	English Language,Arabic Language			jo	Arabic Language,Bedawi Arabic	Monarchy,Constitutional monarchy	/m/0d9h30n		
Great Moravia	/m/01q6c7				Mikulčice														
Barbados	/m/0162v		BARBADOS	BB	Bridgetown				Saint Thomas Parish,Christ Church Parish,Saint Peter Parish,Saint Joseph Parish,Saint John Parish,Saint Philip Parish,Saint James Parish,Saint Andrew Parish,Saint Michael Parish,Saint Lucy Parish,Saint George Parish	Barbados dollar	English Language			bb	English Language	Parliamentary system,Constitutional monarchy			
Federal Republic of Yugoslavia	/m/018j0w																		
Malaysia	/m/09pmkv		MALAYSIA	MY	Putrajaya,Kuala Lumpur				Johor,Penang,Putrajaya,Terengganu,Kuala Lumpur,Kelantan,Sarawak,Perlis,Perak,Kedah,Negeri Sembilan,Malacca,Pahang,Labuan,Selangor,Sabah	Malaysian ringgit	English Language,Malay Language,Malaysian language			my	English Language,Malay Language,Chinese language,Tamil Language	Federation,Constitutional monarchy,Monarchy,Parliamentary system		Indian rupee	60
Cyprus	/m/01ppq		CYPRUS	CY	Nicosia				Larnaca District,Famagusta District,Paphos District,Nicosia District,Kyrenia District,Limassol District	Euro	Greek Language,Turkish Language			cy		Presidential system	/m/0d9d9jc		
Republic of Cabinda	/m/025tnp1															Government in exile			
Mozambique	/m/04wlh		MOZAMBIQUE	MZ	Maputo				Sofala,Manica Province,Cabo Delgado,Gaza Province,Maputo,Tete Province,Nampula Province,Zambezia Province,Inhambane,Niassa Province,Maputo Province	Mozambican escudo,Mozambican metical	Portuguese Language			mz	Portuguese Language,Swahili Language	Presidential system,Republic	/m/0fq65cj	Mozambican escudo	258
Morocco	/m/04wgh		MOROCCO	MO	Rabat				Laâyoune-Boujdour-Sakia El Hamra,Guelmim,Gharb-Chrarda-Béni Hssen,Marrakech-Tensift-El Haouz,Souss-Massa-Draâ,Tangier-Tétouan,Guelmim-Es Semara,Oriental Region,Grand Casablanca,Meknès-Tafilalet,Fès-Boulemane,Taza-Al Hoceima-Taounate,Doukkala-Abda,Chefchaouen,Western Sahara,Oued Ed-Dahab-Lagouira,Tadla-Azilal,Rabat-Salé-Zemmour-Zaer,Chaouia-Ouardigha	Moroccan dirham	Arabic Language,French Language,Berber languages			ma	Arabic Language	Monarchy,Constitutional monarchy	/m/09v8rnk		
Malawi	/m/04tr1		MALAWI	MI	Lilongwe				Mchinji District,Machinga District,Likoma District,Nsanje District,Chitipa District,Salima District,Mwanza District,Chikwawa District,Chiradzulu District,Lilongwe District,Thyolo District,Nkhata Bay District,Ntchisi District,Balaka District,Karonga District,Dedza District,Mulanje District,Rumphi District,Mzimba District,Blantyre District,Phalombe District,Zomba District,Mangochi District,Dowa District,Ntcheu District,Nkhotakota District,Kasungu District	Malawian pound,Malawian kwacha	English Language,Chewa language			mw	Afrikaans Language,Swahili Language	Democracy		Malawian pound	
Kiribati	/m/047t_		KIRIBATI	KR	South Tarawa				Line Islands,Gilbert Islands,Phoenix Islands	Kiribati dollar,Australian dollar	Kiribati language,English Language			ki	English Language,Kiribati language	Republic	/m/0d9h5v4		686
Lithuania	/m/04gzd		LITHUANIA	LH	Vilnius				Vilnius County,Šiauliai County,Telšiai County,Klaipėda County,Kaunas County,Alytus County,Marijampolė County,Panevėžys County,Tauragė County,Utena County	Lithuanian litas	Lithuanian language			lt	Russian Language,Lithuanian language	Semi-presidential system	/m/0g51p6r		370
Mauritania	/m/04vjh		MAURITANIA	MR	Nouakchott				Hodh Ech Chargui,Assaba,Tagant,Dakhlet Nouadhibou,Gorgol,Brakna,Inchiri,Hodh El Gharbi,Trarza,Tiris Zemmour,Adrar,Guidimaka	Mauritanian ouguiya	Arabic Language,French Language			mr	Fula language,Arabic Language	Republic,Military dictatorship,Islamic republic			
Paddington	/m/0nbrp																		
Aruba	/m/0j11		ARUBA	AA	Oranjestad					Aruban florin,Euro	English Language,Dutch Language,Spanish Language,Papiamento language			aw		Constitutional monarchy			
Italy	/m/03rjj		ITALY	IT	Rome				Province of Pesaro e Urbino,Province of Caltanissetta,Province of Udine,Province of Taranto,Aosta Valley,Province of La Spezia,Province of Messina,Province of Avellino,Province of Cuneo,Province of Forlì-Cesena,Province of Terni,Province of Pescara,Province of Imperia,Province of Prato,Campania,Lombardy,Province of Brindisi,Province of Reggio Calabria,Province of Parma,Province of Vibo Valentia,Naples,Province of Arezzo,Province of Massa-Carrara,Florence,Province of Nuoro,Province of Bergamo,Province of Foggia,Abruzzo,Province of Lodi,Province of Novara,Rome,Province of Bari,Province of Florence,Province of Milan,Province of Fermo,Province of Sondrio,Province of Medio Campidano,Province of Oristano,Liguria,Province of Cremona,Province of Ancona,Province of Ogliastra,Province of Lecco,Province of Enna,Province of Bolzano-Bozen,Province of Potenza,Province of Modena,Lazio,Province of Caserta,Province of Venice,Province of Catania,Sardinia,Province of Rimini,Province of Mantua,Province of Syracuse,Province of Ferrara,Province of Barletta-Andria-Trani,Friuli-Venezia Giulia,Province of Belluno,Molise,Milan,Pisa,Province of Savona,Province of Lucca,Province of Reggio Emilia,Province of L'Aquila,Calabria,Emilia-Romagna,Province of Catanzaro,Trentino-Alto Adige/South Tyrol,Province of Turin,Province of Crotone,Province of Matera,Province of Ravenna,Province of Naples,Province of Pavia,Province of Vercelli,Province of Benevento,Municipio IX,Province of Trento,Province of Rovigo,Province of Piacenza,Province of Lecce,Sicily,Province of Pisa,Venice,Province of Cagliari,Province of Ragusa,Basilicata,Veneto,Province of Rieti,Province of Rome,Province of Livorno,Province of Perugia,Province of Isernia,Province of Siena,Province of Trieste,Province of Varese,Province of Viterbo,Province of Sassari,South Tyrol,Province of Frosinone,Province of Trapani,Province of Salerno,Province of Genoa,Province of Pordenone,Province of Latina,Province of Asti,Tuscany,Province of Alessandria,Province of Verbano-Cusio-Ossola,Province of Teramo,Province of Carbonia-Iglesias,Province of Treviso,Province of Como,Province of Gorizia,Province of Bologna,Umbria,Apulia,Province of Pistoia,Province of Palermo,Province of Ascoli Piceno,Province of Cosenza,Province of Padua,Province of Brescia,Province of Macerata,Province of Grosseto,Province of Olbia-Tempio,Como,Province of Vicenza,Piedmont,Province of Biella,Province of Verona,Marche,Province of Chieti,Province of Monza e Brianza,Province of Agrigento,Province of Campobasso	Euro,San Marinese lira	Italian Language			it	Italian Language,Esperanto Language,Occitan language	Parliamentary republic	/m/0478l9q	San Marinese lira,Italian lira	39
Lesotho	/m/04hvw		LESOTHO	LT	Maseru				Mohale's Hoek District,Qacha's Nek District,Thaba-Tseka District,Quthing District,Hlotse,Berea District,Mafeteng District,Maseru District,Butha-Buthe District,Mokhotlong District	Lesotho loti	Sotho, Southern Language,English Language			ls	English Language	Parliamentary system,Constitutional monarchy			
Navassa Island	/m/05bv3			BQ															
Duchy of Burgundy	/m/03bw_lf				Bruges,Ghent,Dijon														
Emirate of Sicily	/m/0bd46l				Palermo														
China	/m/0d05w3		CHINA	CH	Beijing				Qinghai,Hainan,Yunnan,Beijing,Hubei,Henan,Hong Kong,Macau,Ningxia,Chongqing,Inner Mongolia,Tibet,Guangdong Province,Heilongjiang,Anhui,Xinjiang,Hunan,Jilin,Tianjin,Shanghai,Paracel Islands,Zhejiang,Nanjing,Chengdu,Jiangsu,The Claimed Taiwan Province of the People's Republic of China,Sichuan,Wuhan,Fujian,Guangxi,Hefei,Liaoning,Gansu,Guizhou,Shaanxi,Tibet Autonomous Region,Shandong,Shanxi,Hebei,Jiangxi	Renminbi	Standard Mandarin,Chinese language			mo,cn,hk	Korean Language,Chinese language,Cantonese,Nepali Language,Esperanto Language	Single-party state,Communist state,Dictatorship	/m/0bwbghs	Huizi,Gold yuan	86
Egypt	/m/02k54		EGYPT	EG	Cairo				Kafr El Sheikh Governorate,Al Iskandariyah Governorate,Al Wadi al Jadid,Shamal Sina',Asyut,Bani Suwayf Governorate,Al Isma'iliyah Governorate,Al Jizah Governorate,As Suways Governorate,Ash Sharqiyah Governorate,Aswan Governorate,Suhaj Governorate,Janub Sina',Qina,Al Qahirah Governorate,Al Minya Governorate,Qina Governorate,Al Buhayrah Governorate,Al Bahr al Ahmar,Al Fayyum Governorate,Dimyat Governorate,Al Qalyubiyah,Al Gharbiyah Governorate,Ad Daqahliyah,Bur Sa'id Governorate,Al Minufiyah,Bani Suwayf,Matruh	Egyptian pound	English Language,Arabic Language,Modern Standard Arabic,French Language			eg	Arabic Language,Bedawi Arabic	Semi-presidential system,Dictatorship,Republic	/m/0478lbx		20
French First Republic	/m/0gtzp				Paris											French Directory,French Consulate,Republic,National Convention			
Slovakia	/m/06npd		SLOVAKIA	LO	Bratislava				Nitra Region,Banská Bystrica Region,Prešov Region,Košice Region,Bratislava Region,Žilina Region,Trnava Region,Trenčín Region	Slovak koruna,Euro	Slovak Language			sk	Hungarian	Parliamentary republic	/m/0d9dgnp	Czechoslovak koruna	
Kingdom of Croatia-Slavonia	/m/08t9sy																		
Nicaragua	/m/05c74		NICARAGUA	NU	Managua				Matagalpa,Chontales,Madriz,Región Autónoma del Atlántico Sur,Rivas,León,Chinandega,Estelí,Río San Juan,Boaco,Granada,Masaya,Managua,Jinotega,Carazo,Nueva Segovia,Región Autónoma del Atlántico Norte	Nicaraguan córdoba	Mískito Language,Spanish Language			ni	Spanish Language	Presidential system,Republic			
Democratic Republic of the Congo	/m/088xp			CG	Kinshasa				Équateur,Orientale, Congo,Nord-Kivu,Kasai-Occidental,Katanga Province,Bandundu,Sud-Kivu,Kivu,Maniema,Kasai-Oriental,Kongo Central,Kinshasa,Bandundu Province	Congolese franc	French Language,Lingala Language			cd	Swahili Language,Bemba language	Semi-presidential system,Republic	/m/0431mb_,/m/0431mc6		
Kosovo	/m/04fh3				Priština					Euro				rs,net,com	Serbian language,Torlakian				
New Caledonia	/m/05c17		NEW CALEDONIA	NC	Nouméa					CFP franc,French franc	French Language			nc				French franc	
Belarusian National Republic	/m/03msdy				Hrodna,Prague,Minsk											Government in exile			
Guinea	/m/03676		GUINEA	GV	Conakry				Dubréka,Kindia,Kouroussa Prefecture,Dabola Prefecture,Koubia Prefecture,Dubréka Prefecture,Forécariah,Télimélé,Nzérékoré,Kankan Prefecture,Kindia Prefecture,Boké,Kankan,Koundara,Lola Prefecture,Kérouané,Boffa Prefecture,Nzérékoré Prefecture,Gaoual,Faranah Prefecture,Mamou,Pita,Dalaba,Siguiri Prefecture,Faranah,Télimélé Prefecture,Boké Prefecture,Dalaba Prefecture,Siguiri,Guéckédougou,Labé Prefecture,Dinguiraye Prefecture,Kérouané Prefecture,Fria,Koubia,Forécariah Prefecture,Mali Prefecture,Macenta Prefecture,Coyah Prefecture,Dabola,Labé,Lélouma Prefecture,Koundara Prefecture,Kissidougou,Conakry,Tougué,Tougué Prefecture,Mamou Prefecture,Mandiana Prefecture,Kouroussa,Fria Prefecture,Gaoual Prefecture,Lélouma,Pita Prefecture,Guéckédou Prefecture,Mandiana,Beyla Prefecture,Yomou,Kissidougou Prefecture,Yomou Prefecture,Dinguiraye	Guinean franc,Guinean syli	French Language			gn	Fula language,French Language	Presidential system,Military dictatorship,Republic,Military junta		Guinean syli	
Ireland	/m/012wgb																		
Jamaica	/m/01sn04																		
Empire of Japan	/m/0193qj																		
Chechen Republic of Ichkeria	/m/0dfrl8				Grozny											Government in exile			
Northern Cyprus	/m/01nx28				Nicosia					Turkish lira,Turkish new lira,Euro	Turkish Language			tr,cc		Republic,Representative democracy		Turkish lira	
Kingdom of Prussia	/m/01k6y1				Berlin														
Turkey	/m/01znc_		TURKEY	TU	Ankara				Afyonkarahisar Province,Artvin Province,Balıkesir Province,Isparta Province,Düzce Province,Bolu Province,Kırıkkale Province,Yalova Province,Edirne Province,Konya Province,Muş Province,Manisa Province,Kahramanmaraş Province,Hakkari Province,Kırklareli Province,Şanlıurfa Province,Osmaniye Province,Kayseri Province,Mardin Province,Sivas Province,Malatya Province,Hatay Province,Bingöl Province,Trabzon Province,Aksaray Province,Tunceli Province,Adıyaman Province,Sakarya Province,Kastamonu Province,Rize Province,Kırşehir Province,Burdur Province,Denizli Province,Uşak Province,Çankırı Province,Mersin Province,Bartın Province,Yozgat Province,Ordu Province,Tekirdağ Province,Batman Province,Erzurum Province,Diyarbakır Province,Kocaeli Province,Ağrı Province,Kilis Province,Northern Cyprus,Bitlis Province,Tokat Province,Bursa Province,Adana Province,Van Province,Iğdır Province,İzmir Province,Şırnak Province,Niğde Province,Samsun Province,Eskişehir Province,Zonguldak Province,Ardahan Province,Çorum Province,Kars Province,Giresun Province,Nevşehir Province,Erzincan Province,Kütahya Province,Siirt Province,Amasya Province,Bayburt Province,Çanakkale Province,Gaziantep Province,Muğla Province,Aydın Province,Istanbul Province,Gümüşhane Province,Sinop Province,Karaman Province,Antalya Province,Karabük Province,Bilecik Province,Elazığ Province,Ankara Province	Turkish new lira,Turkish lira	Turkish Language			tr	Ladino Language	Parliamentary republic	/m/059kj6v	Turkish lira	
British West Indies	/m/01r188																		
Cocos Islands	/m/01p6l		COCOS (KEELING) ISLANDS	CK						Australian dollar	English Language			cc					
Mongol Empire	/m/01jv68				Beijing,Xanadu														
Southern Rhodesia	/m/01ptlk				Harare					Southern Rhodesian pound									
Kingdom of England	/m/024pcx				Winchester,London,Westminster											Monarchy			
Spanish Empire	/m/01s47p																		
Kingdom of Naples	/m/01m41_																		
Ancient Cilicia	/m/02k_m32																		
Guinea-Bissau	/m/036b_		GUINEA-BISSAU	PU	Bissau				Bissau Region,Tombali Region,Bafatá Region,Oio Region,Biombo Region,Cacheu Region,Bolama Region,Gabú Region,Quinara Region	CFA franc,Guinea Bissau peso,West African CFA franc	Portuguese Language			gw	Fula language,Portuguese Language	Semi-presidential system,Republic	/m/0d8bg6f	Guinea Bissau peso	
Palestine	/m/0h44w									Palestinian pound									
Wales	/m/0j5g9				Cardiff					UK £	Welsh Language,English Language			gb,eu,uk	British English	Constitutional monarchy,Devolution	/m/03k0fp5		
Afghanistan	/m/0jdd		AFGHANISTAN	AF	Kabul				Ghazni Province,Farah Province,Paktia Province,Jowzjan Province,Takhar Province,Kunar Province,Nimruz Province,Lowgar Province,Laghman Province,Samangan Province,Helmand Province,Bamiyan Province,Faryab Province,Nurestan Province,Orūzgān Province,Balkh Province,Kapisa Province,Wardak Province,Nangarhar Province,Ghowr Province,Khost Province,Kunduz Province,Herat Province,Baghlan Province,Parvān Province,Dāykondī Province,Panjshīr Province,Badghis Province,Kabul Province,Kandahar Province,Paktika Province,Sar-e Pol Province,Badakhshan Province,Zabul Province	Afghan afghani	Pashto language,Persian Language,Dari			af	Pashto language,Dari,Persian Language	Islamic republic,Presidential system		Abasi	
Puerto Rico	/m/05r7t		PUERTO RICO	RQ	San Juan					US$	Spanish Language,English Language			pr,us	English Language,Spanish Language	Republic,Democracy	/m/0bwrx95		
Austria	/m/0h7x		AUSTRIA	AU	Vienna				Salzburg,Kufstein,Carinthia,Styria,Burgenland,Upper Austria,Lower Austria,Vorarlberg,Schwaz,Tyrol,Vienna	Austrian krone,Euro,Austrian schilling	Hungarian,Slovenian language,Croatian language,Austrian German,German Language	/m/02xl060	/m/02xl06c	at	Bavarian Language,Hungarian,German Language	Federal republic,Parliamentary republic		Austrian schilling	43
Kingdom of Italy	/m/05jt5h																	Italian lira	
Tonga	/m/07fb6		TONGA	TN	Nuku'alofa					Tongan pa'anga	English Language,Tongan Language,French Language			to		Constitutional monarchy,Monarchy			
Armenia	/m/0jgx		ARMENIA	AM	Yerevan				Aragatsotn,Alaverdi,Goris Province,Ararat,Kotayk,Armavir,Gegharkunik,Ijevan,Shirak,Yerevan,Jermuk	Armenian dram	Armenian Language			am		Presidential system			
Albania	/m/0jdx		ALBANIA	AL	Tirana				Kavajë District,Durrës District,Gramsh District,Tropojë District,Pogradec District,Korçë District,Kurbin District,Fier District,Devoll District,Korçë County,Vlorë District,Mat District,Librazhd District,Gjirokastër District,Dibër District,Lezhë District,Has District,Pukë District,Skrapar District,Lezhë County,Tiranë District,Durrës County,Gjirokastër County,Vlorë County,Delvinë District,Shkodër County,Kolonjë District,Përmet District,Krujë District,Kukës County,Mirditë District,Kuçovë District,Bulqizë District,Malësi e Madhe District,Fier County,Sarandë District,Berat District,Dibër County,Elbasan County,Shkodër District,Kukës District,Lushnjë District,Berat County,Tepelenë District,Peqin District,Tiranë County,Mallakastër District,Elbasan District	Albanian lek	Albanian language			al	Vlach language,Romani language,Albanian language,Greek Language	Parliamentary system,Parliamentary republic	/m/04dwhj1,/m/0d7vmrj		355
United Arab Emirates	/m/0j1z8		UNITED ARAB EMIRATES	AE	Abu Dhabi				Sharjah,Ras al-Khaimah,Abu Dhabi,Umm al-Quwain,Fujairah,Ajmān,Dubai	United Arab Emirates dirham	Arabic Language			ae	Arabic Language	Emirate,Absolute monarchy,Monarchy		Indian rupee	971
Pakistan	/m/05sb1		PAKISTAN	PK	Islamabad				Sindh,Islamabad Capital Territory,Azad Kashmir,Federally Administered Tribal Areas,Balochistan,Khyber Pakhtunkhwa,Punjab	Pakistani rupee	Seraiki Language,Sindhi Language,Urdu Language,Punjabi language,Balochi language,Pashto language,English Language			pk	Hindustani language,Punjabi language,English Language,Balochi language,Urdu Language,Pashto language,Sindhi Language	Federation,Federal republic,Republic,Parliamentary republic,Semi-presidential system,Democracy,Parliamentary system,Islamic republic		Indian rupee	92
Great Seljuq Empire	/m/02z62v1				Nishapur,Isfahan,Ray														
Mataram Sultanate	/m/04gd3n																		
Principality of Wales	/m/0576g9				Dolwyddelan,Abergwyngregyn						Welsh Language				Welsh Language	Monarchy,Principality			
Mexico	/m/0b90_r		MEXICO	MX	Mexico City				Nuevo León,Nayarit,Coahuila,Roma Sur,Morelos,Roma Norte,Veracruz,Michoacán,San Luis Potosí,Mexico City,Hidalgo,Vista Alegre,Colonias of Mexico City,Querétaro,Baja California Sur,Álvaro Obregón, D.F.,Tamaulipas,Colima,Doctores,Nonoalco Tlatelolco,Yucatán,Colonia,Jalisco,Condesa,Esperanza,Cuauhtémoc, D.F.,Sinaloa,Delegaciones del Distrito Federal,Mexico State,Hipódromo-Condesa,Chiapas,Chihuahua,Azcapotzalco, D.F.,Tlaxcala,Paulino Navarro,Tabasco,Hipódromo,Guanajuato,Durango,Algarin,Zacatecas,Quintana Roo,San Simón Tolnahuac,Sonora,Ampliación Asturias,Obrera,Juárez,Transito,Delegación,Baja California,States of Mexico,Guerrero,Asturias,Aguascalientes,Iztacalco, D.F.,Campeche,Buenos Aires,Puebla,Oaxaca	MX,Mexican peso	Spanish Language	/m/02_4tbx	/m/02_4tc7	mx	Tarahumara language,Maya, Yucatán Language,Spanish Language,Nahuatl language	Constitutional republic,Federal republic,Democracy,Presidential system,Constitution	/m/0478l4_		52
French Polynesia	/m/02wzv		FRENCH POLYNESIA	FP	Papeete				Tuamotu-Gambier Islands,Austral Islands,Marquesas Islands,Windward Islands,Leeward Islands	CFP franc	Tahitian Language,French Language			pf				French franc	
Gabon	/m/03548			GB	Libreville				Ogooué-Maritime,Nyanga,Ngounié,Moyen-Ogooué,Ogooué-Ivindo,Estuaire,Haut-Ogooué,Ogooué-Lolo,Woleu-Ntem	CFA franc,Central African CFA franc	Spanish Language,French Language			ga	French Language	Republic	/m/0d9g63b		
Roman Republic	/m/06frc				Rome														
Republic of China	/m/06f32		"TAIWAN, PROVINCE OF CHINA"	TW	Nanjing,Taipei				Chiayi County,Wang-an Township,Pescadores,Taiwan Province,Taoyuan County,Nantou County,Kaohsiung,Taipei County,Changhua County,Tainan County,Pingtung County,Hsinchu County,Taichung County,Chiayi,Taichung,Yunlin County,Hsinchu,Keelung,Taitung County,Yilan County,Miaoli County,Kaohsiung County,Fujian Province,Hualien County,Tainan City,Taipei	Chinese customs gold unit,New Taiwan dollar,Old Taiwan dollar	Taiwanese Mandarin			tw	Taiwanese Mandarin,Chinese, Hakka Language,Taiwanese	Government in exile,Semi-presidential system,Republic	/m/0bwbd8f	Old Taiwan dollar,Chinese customs gold unit	886
Uzbekistan	/m/07t_x		UZBEKISTAN	UZ	Tashkent				Xorazm Province,Jizzakh Province,Andijan Province,Fergana Province,Samarqand Province,Tashkent,Toshkent Province,Sirdaryo Province,Namangan Province,Buxoro Province,Qashqadaryo Province,Navoiy Province,Karakalpakstan,Surxondaryo Province	Uzbekistani som	Uzbek language			uz	Persian Language	Republic,Presidential system,Dictatorship	/m/0fq7b6g		
Northern Mariana Islands	/m/05cnr		NORTHERN MARIANA ISLANDS	CQ	Saipan					US$	English Language,Carolinian Language,Chamorro Language			mp		Presidential system,Representative democracy			
Macedon	/m/0bk25				Vergina,Pella, Greece														
USAustria	/m/0g4tvkw																		
Malta	/m/04v3q		MALTA	MT	Valletta				Gozo	Euro	Maltese Language,English Language			mt	English Language	Parliamentary republic		Maltese lira	
Andorra	/m/0hg5		ANDORRA	AN	Andorra la Vella				Canillo,Andorra la Vella,Ordino,Sant Julià de Lòria,La Massana,Escaldes-Engordany,Encamp	Euro	Spanish Language,French Language,Catalan language,Portuguese Language			ad	Catalan language,Portuguese Language,Spanish Language	Diarchy,Co-regency,Monarchy,Principality,Parliamentary system,Constitutional monarchy	/m/0bg8nwg	French franc,Spanish peseta	376
Squamish Nation	/m/0gqqyt																		
Guadeloupe	/m/037nm		GUADELOUPE	GP	Basse-Terre				Guadeloupe	Euro									
Kingdom of Sicily	/m/02zqdb				Naples,Palermo														
Former Qin	/m/025f9x				Taiyuan,Chang'an														
Kingdom of Scotland	/m/025ndl				Scone,Edinburgh														
Nairobi	/m/05d49																		
Isle of Man	/m/03t1s		ISLE OF MAN	IM	Douglas					UK £,Manx pound	English Language,Manx Language			im	English Language,Manx Language,British English	Constitutional monarchy,Parliamentary system			
Government of Abkhazia-in-exile	/m/0fsx89															Government in exile			
Canada	/m/0d060g		CANADA	CA	Ottawa				Yukon,Newfoundland and Labrador,Manitoba,Alberta,Nunavut,Squamish Nation,New Brunswick,Ontario,Northwest Territories,Québec,British Columbia,Nova Scotia,Prince Edward Island,Saskatchewan	Canadian dollar	French Language,English Language			ca	Italian Language,English Language,Punjabi language,Tagalog language,Spanish Language,Greek Language,Vietnamese Language,Arabic Language,Portuguese Language,Tamil Language,Russian Language,Romanian Language,Persian Language,Korean Language,Urdu Language,Canadian English,Canadian French,Polish Language,Gujarati Language,Chinese language,German Language	Constitutional monarchy,Parliamentary system	/m/0478l5c		1
Venezuela	/m/07ylj		VENEZUELA	VE	Caracas				Anzoátegui,Falcón,Bolívar,Miranda,Trujillo,Barinas,Mérida,Táchira,Monagas,Amazonas,Yaracuy,Nueva Esparta,Aragua,Venezuelan Capital District,Lara,Cojedes,Zulia,Federal dependencies,Guárico,Sucre,Federal dependencies of Venezuela,Vargas,Apure,Portuguesa,Delta Amacuro,Carabobo	Venezuelan bolívar	Spanish Language			ve		Presidential system,Federal republic,Republic	/m/0d9f0qw		
Dual monarchy of England and France	/m/05zth5b																		
Bahrain	/m/0161c		BAHRAIN	BA	Manama				Madinat 'Isa,Manama,Hawar Islands,Al Gharbiyah Region,Madinat Hamad,Sitrah,Al Muharraq,Ar Rifa' wa al Mintaqah al Janubiyah,Al Wusta Region,Jidd Haffs,Al Hidd,Ash Shamaliyah Region	Bahraini dinar	English Language,Arabic Language			bh	Persian Language,Arabic Language	Monarchy,Constitutional monarchy		Indian rupee	
Duchy of Normandy	/m/021dh6																		
Greece	/m/035qy		GREECE	GR	Athens				Imathia Prefecture,Florina Prefecture,Cyclades,Euboea,Pieria,Dodecanese,Drama Prefecture,Heraklion,Trikala Prefecture,Kavala Prefecture,Phthiotis,Larissa Prefecture,Chalcidice,Heraklion Prefecture,Messenia,Elis Prefecture,Arcadia,Rhodope Prefecture,Piraeus Prefecture,Thesprotia,Kilkis Prefecture,Xanthi Prefecture,Preveza Prefecture,Boeotia Prefecture,Boeotia,Lefkada,Kastoria Prefecture,Phocis,Kefalonia,Corfu,Achaea,Magnesia,Laconia,Arta Prefecture,Aetolia-Acarnania,Evros Prefecture,Argolis,Grevena Prefecture,Chania Prefecture,Lesbos Prefecture,Lasithi,Corinthia,Chios,Pella Prefecture,Ioannina Prefecture,Karditsa Prefecture,Samos Prefecture,Pella,Thessaloniki Prefecture,Attica,Serres Prefecture,Evrytania,Zakynthos,Rethymno Prefecture,Kozani Prefecture,Mount Athos	Greek drachma,Euro	Greek Language			gr	Greek Language	Parliamentary republic	/m/0d9d9jk	Greek drachma	
Iceland	/m/03rj0		ICELAND	IC	Reykjavik				Suðurland,Vesturland,Suðurnes,Norðurland eystra,Westfjords,Norðurland vestra,Greater Reykjavík Area,Austurland	Icelandic króna	Icelandic Language			is	Icelandic Language	Parliamentary republic	/m/0d8bk2z		
Brunei	/m/0167v		BRUNEI DARUSSALAM	BX	Bandar Seri Begawan					Brunei dollar	Malay Language,English Language			bn	Nepali Language,English Language	Absolute monarchy,Monarchy			
Anguilla	/m/0n3g		ANGUILLA	AV	The Valley					East Caribbean dollar	English Language			ai	English Language				1
Western Roman Empire	/m/02jbz2				Milan,Ravenna														
Monaco	/m/04w58		MONACO	MN						Euro	Italian Language,Monégasque language,French Language			mc	Occitan language,French Language	Constitutional monarchy,Principality,Monarchy		French franc,Monegasque franc	
Swaziland	/m/06v36		SWAZILAND	WZ	Lobamba,Mbabane				Hhohho,Shiselweni,Lubombo,Manzini District	Swazi lilangeni	Swati Language,Zulu Language,English Language			sz	English Language	Monarchy,Absolute monarchy,Diarchy			
Tanzania	/m/07dzf		"TANZANIA, UNITED REPUBLIC OF"	TZ	Dodoma,Dar es Salaam				Tanga Region,Lindi,Zanzibar,Dodoma Region,Mwanza,Mtwara,Rukwa Region,Manyara Region,Zanzibar Central/South Region,Mara Region,Pemba North Region,Zanzibar North Region,Kigoma,Dar es Salaam,Pemba South Region,Tabora,Mbeya,Kondoa,Ruvuma Region,Mount Kilimanjaro,Zanzibar Urban/West Region,Shinyanga,Arusha,Iringa,Singida,Kagera Region,Pwani Region,Morogoro	East African shilling,Tanzanian shilling	English Language,Swahili Language			tz	Swahili Language,English Language,Maasai Language,Ngasa Language,Arabic Language	Republic	/m/049ygf7		255
Presidencies of British India	/m/02660pr				Delhi				Upper Burma,North-West Frontier Province,United Provinces of Agra and Oudh,Bombay Presidency,Central Provinces and Berar,Lower Burma,Madras Presidency,Ajmer-Merwara,Punjab,Bengal Presidency							Colonialism			
New Kingdom	/m/02sl7g				Thebes,Amarna														
Neustria	/m/0kjkd																		
Ancient Greece	/m/0hkt6																		
Hungary.	/m/05xf2d3																		
Oman	/m/05l8y		OMAN	MU	Muscat				Ad Dhahirah,Al Batinah Region,Dhofar,Ash Sharqiyah Region,Al Wusta Region,Ad Dakhiliyah Region,Muscat,Musandam,Al Buraymi	Omani rial	Arabic Language			om	Persian Language,Arabic Language	Constitutional monarchy,Absolute monarchy,Monarchy		Indian rupee	
Czechoslovakia	/m/01mk6				Prague												/m/0d9dgnx		
Comoros	/m/01n6c		COMOROS	CN	Moroni				Grande Comore,Mohéli,Anjouan	Comorian franc	Arabic Language,Comorian language,Swahili Language,French Language			km	French Language	Federal republic			
Vietnam	/m/01crd5		VIET NAM	VM	Hanoi				Cao Bang Province,Quang Ngai Province,Nam Dinh Province,Dong Thap Province,Khanh Hoa Province,Vinh Long Province,Quang Tri Province,Ho Chi Minh City,Ba Ria-Vung Tau Province,Quang Nam Province,Soc Trang Province,Lam Dong Province,Lai Chau Province,Kien Giang Province,Dak Lak Province,Ha Tinh Province,Dong Nai Province,Vinh Phuc Province,Song Be Tinh,Long An Province,Hanoi,Ninh Bình Province,Binh Dinh Province,Binh Duong Province,Tien Giang Province,Tra Vinh Province,Minh Hai Tinh,Ha Tay Province,Bac Thai Tinh,Binh Phuoc Province,Da Nang,Ben Tre Province,Nghe An Province,Lao Cai Province,Dak Nong Province,Bac Ninh Province,Bac Kan Province,Dien Bien Province,An Giang Province,Phu Yen Province,Thua Thien-Hue Province,Quang Binh Province,Haiphong,Hai Duong Province,Ca Mau Province,Ninh Thuan Province,Thanh Hoa Province,Quang Ninh Province,Hung Yen Province,Bac Lieu Province,Son La Province,Lang Son Province,Thai Nguyen Province,Ha Giang Province,Hau Giang Province,Bac Giang Province,Yen Bai Province,Binh Thuan Province,Hai Hung Tinh,Tuyen Quang Province,Kon Tum Province,Tay Ninh Province,Can Tho,Gia Lai Province,Ha Bac Tinh,Ha Nam Province,Hoa Binh Province,Phu Tho Province,Thai Binh Province	Vietnamese dong	Vietnamese Language			vn	Esperanto Language	Single-party state,Dictatorship,Socialist state,Communist state	/m/0478l64		
Mercia	/m/09n_7				Tamworth,Repton														
Dahomey	/m/02fdq				Abomey														
Kingdom of Bavaria	/m/02vkbz_																		
Palestinian territories	/m/0nyg5									Israeli new sheqel									
Republic of South Vietnam	/m/0hv_0				Ho Chi Minh City														
Grand Duchy of Lithuania	/m/021hd9																		
Russian Soviet Federative Socialist Republic	/m/01mzwp																/m/0d7qjyj		
Ptolemaic Egypt	/m/06zddj																		
Kingdom of Hawaii	/m/01hlvc				Honolulu,Lahaina												/m/0d1xb3q,/m/0d1xb3z,/m/0d1x6jy		
Benin	/m/0164v		BENIN	BN	Porto-Novo				Littoral Department,Zou Department,Mono Department,Kouffo Department,Borgou Department,Plateau Department,Alibori Department,Atakora Department,Collines Department,Donga Department,Atlantique Department,Ouémé Department	West African CFA franc,CFA franc	French Language			bj	Fon language,Yoruba Language,Esperanto Language,Fula language,French Language	Republic	/m/0g51qc0		229
Tuvinian People's Republic	/m/01dfxs									Tuvan akşa									
Mali	/m/04v09		MALI	ML	Bamako				Kidal Region,Tombouctou Region,Kayes Region,Bamako,Gao Region,Mopti Region,Ségou Region,Koulikoro Region,Sikasso Region	Malian franc,CFA franc,West African CFA franc	Bambara language,French Language			ml	Fula language,French Language	Republic,Semi-presidential system		Malian franc	
The Gambia	/m/0hdx8		GAMBIA	GA	Banjul				Banjul,Central River Division,North Bank Division,Western Division,Upper River Division,Lower River Division	Gambian dalasi	English Language			gm	Fula language,English Language	Republic			
Cape Verde	/m/01nqj		CAPE VERDE	CV	Praia				São Miguel, Cape Verde,Santa Cruz, Cape Verde,Ribeira Grande, Cape Verde,Porto Novo, Cape Verde,São Filipe,Sal,Tarrafal, Cape Verde,São Domingos,Maio,Praia,Brava,Paul, Cape Verde,Santa Catarina, Cape Verde,Mosteiros, Cape Verde,São Nicolau,São Vicente,Boa Vista	Cape Verdean escudo	Portuguese Language			cv	Portuguese Language	Republic			
Burkina Faso	/m/01699		BURKINA FASO	UV	Ouagadougou				Loroum Province,Zoundwéogo,Namentenga,Boulgou,Oubritenga,Ziro,Séno Province,Kouritenga,Banwa,Yatenga,Passoré,Oudalan,Tapoa Province,Kompienga,Ioba,Zondoma,Soum,Boulkiemdé,Noumbiel,Comoé Province,Yagha,Sanguié,Mouhoun Province,Nayala Province,Kourwéogo,Bougouriba,Sissili,Sourou Province,Ganzourgou,Koulpélogo,Houet,Gourma,Poni,Balé,Tuy,Bazéga,Kénédougou,Kossi Province,Bam,Sanmatenga,Komondjari,Kadiogo,Gnagna,Nahouri,Léraba	West African CFA franc	French Language			bf	French Language,Fula language	Republic,Semi-presidential system	/m/0d8rsxq		
Bohemia	/m/01d8l																		
Kingdom of Ireland	/m/016jz3				Dublin														
Nigeria	/m/05cgv		NIGERIA	NI	Abuja				Ogun State,Borno State,Katsina State,Taraba State,Oyo State,Benue State,Niger State,Gombe State,Sokoto State,Kebbi State,Bauchi State,Yobe State,Rivers State,Federal Capital Territory,Ondo State,Delta State,Edo State,Zamfara State,Cross River State,Ebonyi State,Adamawa State,Abia State,Nasarawa State,Enugu State,Kogi State,Plateau State,Jigawa State,Ekiti State,Lagos State,Kano State,Imo State,Osun State,Kwara State,Akwa Ibom,Bayelsa State,Kaduna State,Anambra State	Nigerian pound,Nigerian naira	English Language,Pidgin, Nigerian Language,Hausa Language,Yoruba Language,Igbo Language			ng	Idoma Language,Pidgin, Nigerian Language,Efik Language,Igala Language,Nupe language,Kanuri language,Kalabari Language,Hausa Language,Naki Language,Izon Language,Fula language,Gbagyi Language,English Language,Ibibio Language,Edo Language,Yoruba Language,Tiv Language,Igbo Language	Federal republic,Presidential system		Nigerian pound	
Slovenia	/m/06t8v		SLOVENIA	SI	Ljubljana				Hrastnik,Žalec,Borovnica,Moravče,Braslovče,Dolenjske Toplice,Ig,Dol pri Ljubljani,Litija,Lenart,Logatec,Podvelka,Dobrova-Polhov Gradec,Trbovlje,Kranjska Gora,Kidričevo,Slovenske Konjice,Ribnica,Novo Mesto,Grad,Mežica,Juršinci,Radenci,Duplek,Miren-Kostanjevica,Dobrepolje,Sevnica,Pesnica,Ljutomer,Železniki,Vipava,Miklavž na Dravskem polju,Kanal ob Soči,Škofljica,Benedikt,Moravske Toplice,Kungota,Vuzenica,Rače-Fram,Koper - Capodistria,Ajdovščina,Tabor,Medvode,Škofja Loka,Puconci,Šentjernej,Kuzma,Rogaška Slatina,Naklo, Slovenia,Kamnik,Selnica ob Dravi,Radlje ob Dravi,Sveta Ana,Bloke,Brda,Odranci,Ivančna Gorica,Loška Dolina,Tolmin,Gorenja vas-Poljane,Bled,Slovenska Bistrica,Šalovci,Šentjur pri Celju,Komenda,Jesenice,Prebold,Šmartno ob Paki,Sežana,Metlika,Slovenj Gradec,Domžale,Mozirje,Žiri,Muta,Dobrna,Sodražica,Kočevje,Žetale,Križevci,Cerklje na Gorenjskem,Šenčur,Črenšovci,Cankova,Izola,Komen,Velika Polana,Prevalje,Zagorje ob Savi,Luče,Radeče,Vitanje,Žužemberk,Podlehnik,Jezersko, Slovenia,Križevci,Gorišnica,Brezovica Municipality,Velenje,Laško,Trzin,Turnišče,Idrija,Kozje,Veržej,Lovrenc na Pohorju,Oplotnica,Sveti Jurij,Šmartno pri Litiji,Sveti Andraž v Slovenskih goricah,Dornava,Videm,Solčava,Dobrovnik,Beltinci,Vransko,Starše,Ruše,Destrnik,Ormož,Podčetrtek,Žirovnica,Kostel,Majšperk,Osilnica,Šentilj,Vrhnika,Bistrica ob Sotli,Trnovska vas,Zavrč,Ptuj,Šmarje pri Jelšah,Ilirska Bistrica,Šempeter-Vrtojba,Grosuplje,Lukovica,Mirna Peč,Razkrižje,Cerkvenjak,Polzela,Kranj,Črna na Koroškem,Mislinja,Trebnje,Štore,Rogatec,Vojnik,Hajdina,Murska Sobota,Hodoš,Gornji Petrovci,Škocjan,Piran,Tržič,Postojna,Nova Gorica,Rogašovci,Ravne na Koroškem,Radovljica,Hrpelje-Kozina,Horjul,Markovci,Cerknica,Velike Lašče,Loški Potok,Gornja Radgona,Vodice,Tišina,Bohinj,Hoče-Slivnica,Maribor,Šoštanj,Kobarid,Mengeš,Dobje,Divača,Semič,Bovec,Zreče,Črnomelj,Lendava,Kobilje,Cerkno,Krško,Ribnica na Pohorju,Dravograd,Brežice,Ljubljana,Nazarje,Gornji Grad,Pivka,Celje,Preddvor,Ljubno	Euro,Slovenian tolar	Slovenian language			si		Parliamentary republic		Slovenian tolar	
Kingdom of Italy	/m/02psqkz				Rome,Turin,Florence													Italian lira	
Judea	/m/0kf0p																		
Clipperton Island	/m/01p62			IP						Euro	French Language								
Solomon Islands	/m/01n8qg		SOLOMON ISLANDS	BP	Honiara				Rennell and Bellona,Western Province,Choiseul Province,Central Province	Solomon Islands dollar	English Language,Pijin Language			sb	English Language	Constitutional monarchy			
Panama	/m/05qx1		PANAMA	PM	Panama City				Colón Province,Los Santos Province,Veraguas Province,Darién Province,Herrera Province,Bocas del Toro Province,Kuna Yala,Panamá Province,Coclé Province,Chiriquí Province	US$,Panamanian balboa	Spanish Language			pa	Spanish Language	Constitutional democracy			
Republic of Venice	/m/02wm6l				Venice,Eraclea														
Serbian Principality	/m/0821k6				Belgrade,Kragujevac														
Assyria	/m/0wmn														Akkadian language				
Bavaria	/m/017v_																		
Federation of Malaya	/m/01s8rk																		
Cook Islands	/m/020p1		COOK ISLANDS	CW	Avarua					New Zealand dollar,New Zealand pound,Cook Islands dollar	Rarotongan Language,English Language			ck		Constitutional monarchy		New Zealand pound	
Nepal	/m/016zwt		NEPAL	NP	Kathmandu				Mechi Zone,Koshi Zone,Rapti Zone,Bagmati Zone,Lumbini Zone,Narayani Zone,Seti Zone,Sagarmatha Zone,Dhaulagiri Zone,Janakpur Zone,Kernali Zone,Gandaki Zone,Bheri Zone,Mahakali Zone	Nepalese rupee	Nepali Language			np	Nepali Language,Mundari Language,Magar, Eastern Language,Tharu, Dangaura Language,Hindi Language,Tamang language,Maithili Language,Bhojpuri Language,Awadhi Language,Newar Language	Republic,Federal republic	/m/079z2mb		
Sweden	/m/0d0vqn		SWEDEN	SW	Stockholm				Uppsala County,Kronoberg County,Halland County,Västernorrland County,Norrbotten County,Västmanland County,Gotland County,Skåne County,Örebro County,Blekinge County,Jönköping County,Värmland County,Dalarna County,Gävleborg County,Östergötland County,Södermanland County,Västra Götaland County,Stockholm County,Kalmar County,Västerbotten County,Jämtland County	Swedish krona	Swedish Language			se	Swedish Language,Finnish Language	Constitutional monarchy,Parliamentary system,Monarchy	/m/052krmn,/m/052krmy	Swedish riksdaler	46
Wallachia	/m/0cgs4				Curtea de Argeş,Bucharest,Câmpulung,Târgovişte														
Mongolia	/m/04w8f		MONGOLIA	MG	Ulaanbaatar				Bulgan Province,Selenge Province,Orhon Province,Govĭsümber Province,Dornogovi Province,Govi-Altay Province,Hovd Province,Sühbaatar Province,Arhangay Province,Bayanhongor Province,Zavhan Province,Darhan-Uul Province,Hövsgöl Province,Dundgovĭ Province,Bayan-Ölgiy Province,Övörhangay Province,Töv Province,Dornod Province,Ömnögovi Province,Darhan,Ulaanbaatar,Uvs Province,Hentiy Province	Mongolian tögrög	Mongolian language			mn	Kazakh Language,Tuvin Language	Semi-presidential system,Parliamentary republic	/m/0bwnx8x		
Malacca Sultanate	/m/015n7b																		
Kingdom of Travancore	/m/0153fg				Thiruvananthapuram,Padmanabhapuram														
Côte d'Ivoire	/m/0fv4v		COTE D'IVOIRE	IV	Politique,Abidjan,Yamoussoukro				Moyen-Comoé,Vallée du Bandama,Agnéby,Sud-Comoé,Savanes,Worodougou,Bas-Sassandra,Bafing,Sud-Bandama,Haut-Sassandra,Denguélé,Lagunes,Marahoué,Moyen-Cavally,Fromager,N'zi-Comoé,Zanzan,Dix-Huit Montagnes,Lacs	CFA franc,West African CFA franc	French Language			ci	Fula language,French Language	Semi-presidential system,Republic			
New France	/m/0152tq				Quebec City														
Lordship of Ireland	/m/016t0_				Carlow,Dublin														
Turkmenistan	/m/01c4pv		TURKMENISTAN	TX	Aşgabat				Ahal Province,Dashhowuz Province,Mary Province,Balkan Province,Lebap Province	Turkmenistani manat	Turkmen Language			tm		Parliamentary republic,Dictatorship,Presidential system,Single-party state			
Republic of Upper Volta	/m/0bpc2																		
Turks and Caicos Islands	/m/07fr_		TURKS AND CAICOS ISLANDS	TK	Cockburn Town					US$	English Language			tc	English Language				
Martinique	/m/04vg8		MARTINIQUE	MB	Fort-de-France				Martinique	Euro									
Brazilian Empire	/m/01nr2h																/m/0d8nn14		
Cambodia	/m/01xbgx		CAMBODIA	CB	Phnom Penh				Banteay Meanchey,Stung Treng Province,Kep, Cambodia,Takéo Province,Kandal Province,Kampong Thom Province,Pailin,Sihanoukville,Prey Veng Province,Kampot Province,Battambang Province,Kampong Speu Province,Svay Rieng Province,Preah Vihear Province,Phnom Penh,Kratié Province,Pursat Province,Kampong Chhnang Province,Siem Reap Province,Ratanakiri,Mondulkiri,Oddar Meancheay,Kampong Cham Province,Koh Kong Province	Cambodian riel,Cambodian franc	Khmer language			kh	Khmer language,Cambodian French,French Language	Representative democracy,Constitutional monarchy,Parliamentary system,Monarchy	/m/0d8r_bd	Cambodian franc	855
Nashville	/m/05jbn																		
Georgia	/m/0d0kn		GEORGIA	GG	Tbilisi				Samegrelo-Zemo Svaneti,Mtskheta-Mtianeti,Tbilisi,Imereti,Kvemo Kartli,Adjara,Guria,Samtskhe-Javakheti,Racha-Lechkhumi and Kvemo Svaneti,Kakheti,Chiatura,Shida Kartli,Abkhazia	Georgian lari,Russian ruble	Georgian Language			ge	Georgian Language,Abkhaz Language,Russian Language	Republic,Semi-presidential system	/m/0d9g8f5,/m/04g5_9f,/m/0d9g8fg		995
Ethiopia	/m/019pcs		ETHIOPIA	ET	Addis Ababa				Afar Region,Southern Nations, Nationalities, and People's Region,Tigray Region,Addis Ababa,Dire Dawa,Gambela Region,Amhara Region,Oromia Region,Benishangul-Gumaz Region,Welega Province,Harari Region,Somali Region	Ethiopian birr	Amharic Language			et	Sidamo Language,Suri Language,Kachama-Ganjule Language,Sheko Language,Gedeo language,Kistane Language,Bussa Language,Murle Language,Baiso Language,Hadiyya Language,Chara Language,Daasanach Language,Boro Language,Berta Language,Karo Language,Zayse-Zergulla Language,Gawwada Language,Anfillo Language,Seze Language,Basketo Language,Nyangatom Language,Kafa Language,Ganza Language,Somali Language,Libido Language,Saho language,Bambassi Language,Dorze Language,Afar Language,Komo Language,Gumuz Language,Muher language,Me'en Language,Tigrigna Language,Hozo Language,Kacipo-Balesi Language,Yemsa Language,Awngi Language,Koorete Language,Oyda Language,Tsamai Language,Bench Language,Arbore Language,Kwama Language,Shekkacho Language,Shabo Language,Melo Language,Gamo-Gofa-Dawro Language,Zay Language,Dizi Language,Anuak Language,Burji language,Majang language,Hamer-Banna Language,English Language,Kwegu Language,Wolaytta Language,Tigre language,Alaba Language,Xamtanga Language,Male Language,Harari Language,Dirasha Language,Inor language,Silt'e Language,Oromo language,Dime Language,Chaha language,Uduk Language,Turkana Language,Amharic Language,Nuer Language,Argobba language,Kambaata,Konso language,Qimant language,Opuuo Language,Mesqan Language,Nayi Language,Aari Language,Kunfal Language,Mursi Language	Dictatorship,Parliamentary republic,Federal republic			
Frankish Empire	/m/01s5vl																		
Svalbard and Jan Mayen	/m/01glxj																		
Kingdom of Greece	/m/088q1s				Athens					Greek drachma	Greek Language				Greek Language	Parliamentary Democracy,Absolute monarchy,Constitutional monarchy	/m/0djy8_0		
Kingdom of Galicia	/m/091kpm																		
Tajikistan	/m/07dvs		TAJIKISTAN	TI	Dushanbe				Qurghonteppa Oblast,Khatlon,Sughd,Gorno-Badakhshan Autonomous Province	Tajikistani somoni	Persian Language,Russian Language,Tajiki Language			tj	Persian Language	Presidential system,Semi-presidential system		Tajikistani ruble	
Switzerland	/m/06mzp		SWITZERLAND	SZ	Berne				Canton of Vaud,Canton of Zürich,Aarau,Canton of Jura,Canton of Schwyz,Basel-Country,Canton of Neuchâtel,Canton of Graubünden,Basel-City,Canton of Obwalden,Canton of Lucerne,Canton of Thurgau,Canton of Berne,Canton of Geneva,Canton of Nidwalden,Canton of Fribourg,Canton of Solothurn,Canton of Schaffhausen,Canton of Aargau,Canton of Glarus,Appenzell Innerrhoden,Canton Ticino,Canton of Valais,Appenzell Ausserrhoden,Canton of Zug,Canton of Uri,Canton of St. Gallen	Swiss franc	Romansh language,French Language,Italian Language,German Language,Schwyzerdütsch Language			ch	French Language,Italian Language,German Language	Parliamentary system,Parliamentary republic,Federation,Federal republic,Direct democracy			41
Czech Republic	/m/01mjq		CZECH REPUBLIC	EZ	Prague				Vysočina Region,Hradec Králové Region,Zlín Region,Ústí nad Labem Region,Plzeň Region,Prague,South Bohemian Region,South Moravian Region,Carlsbad Region,Moravian-Silesian Region,Olomouc Region,Central Bohemian Region,Pardubice Region,Liberec Region	Czech koruna,CZK	Bulgarian Language,Russian Language,Czech Language,Ukrainian Language,Serbian language,Rusyn Language,Croatian language,Hungarian,Greek Language			cz		Parliamentary republic	/m/0d9dds0	Czechoslovak koruna	
Baden	/m/018w10				Karlsruhe,Baden-Baden														
Cuba	/m/0d04z6		CUBA	CU	Havana				Ciego de Ávila Province,Camagüey Province,Matanzas Province,Cienfuegos Province,Holguín Province,Granma Province,Santiago de Cuba Province,Las Tunas Province,Guantánamo Province,Isle of Youth,La Habana Province,Pinar del Río Province,Sancti Spíritus Province,Havana,Villa Clara Province	US$,Cuban convertible peso,Cuban peso	Spanish Language			cu	Spanish Language	Single-party state,Communist state,Dictatorship,Socialist state	/m/048z_y1		
Yugoslavia	/m/087vz				Belgrade													Yugoslav dinar	
Paracel Islands	/m/05v0k			PF															
Suriname	/m/06nnj		SURINAME	NS	Paramaribo				Sipaliwini District,Saramacca District,Nickerie District,Wanica District,Coronie District,Brokopondo District,Para District,Marowijne District,Commewijne District,Paramaribo District	Suriname dollar,Dutch gulden,Surinamese gulden	Dutch Language,Sranan Tongo			sr	Dutch Language	Constitutional democracy	/m/0d9f0hy	Surinamese gulden	
Trinidad and Tobago	/m/09lxtg		TRINIDAD AND TOBAGO	TD	Scarborough,Port of Spain				Nariva,Saint Patrick,Saint David,Mayaro,Caroni,Port of Spain,San Fernando,Saint Andrew,Tobago,Saint George,Victoria,Arima	Trinidad and Tobago dollar	Spanish Language,English Language			tt	English Language	Parliamentary republic			
Argentina	/m/0jgd		ARGENTINA	AR	Buenos Aires				Santa Fe Province,General Roca Department,Comuna 7  (Buenos Aires),Neuquén Province,Comuna 11  (Buenos Aires),Comuna 3  (Buenos Aires),Catamarca Province,General Donovan Department,Comuna 14  (Buenos Aires),Yerba Buena Department,Choya Deparment,Chaco Province,Comuna 2  (Buenos Aires),Veinticinco de  Mayo Department,Buenos Aires Province,Copo Department,Comuna 15  (Buenos Aires),Córdoba Province,Pilcaniyeu department,Corrientes Province,Santa Cruz Province,San Lorenzo Department,Pichi Mahuida Department,La Rioja Province,Comuna 1  (Buenos Aires),Tierra del Fuego Province,Ezeiza Partido,Rancul  department,Buenos Aires,Comuna 10  (Buenos Aires),Tucumán Province,Comuna 12  (Buenos Aires),Salta Province,Comuna 9  (Buenos Aires),Comuna 6  (Buenos Aires),San Juan Province,La Pampa Province,Pellegrini Partido,Chubut Province,Mendoza Province,Formosa Province,Santiago del Estero Province,Lihuel Calel  department,Comuna 13  (Buenos Aires),Misiones Province,Comuna 8  (Buenos Aires),San Luis Province,Jujuy Province,Entre Ríos Province,Chicligasta Department,Río Negro Province,Comuna 5  (Buenos Aires),Comuna 4  (Buenos Aires)	Argentina peso ley,Argentinian Peso,Argentine peso argentino,Argentine real,Argentine peso	Spanish Language			ar	Yiddish Language,Spanish Language	Presidential system,Federal republic	/m/05bp619	Argentina peso ley	54
New York	/m/059rby																		
Northern Ireland	/m/05bcl				Belfast				Down District Council	UK £	Irish,English Language,Ulster Scots language			uk,ie	Gaelic	Constitutional monarchy			
Bermuda	/m/0165b		BERMUDA	BD	Hamilton				Sandys Parish,Warwick Parish,Paget Parish,Devonshire Parish,Hamilton Parish,Pembroke Parish, Bermuda,Smith's Parish,Southampton Parish,St. George's,St. George's Parish	Bermuda dollar,Bermuda pound	English Language			bm	English Language			Bermuda pound	
Campione d'Italia	/m/01_zlg									Swiss franc,Euro,Italian lira									
Russian Empire	/m/0cdbq				Saint Petersburg,Moscow														
Mesopotamia	/m/0524v																		
Nazi Germany	/m/059z0				Berlin,Flensburg														
Georgian SSR	/m/0247my																/m/0d9g9dz		
Kingdom of Romania	/m/01rdm0				Bucharest,Iași														
Islamic Emirate of Afghanistan	/m/01x31l																		
Marshall Islands	/m/04v6v		MARSHALL ISLANDS	RM						US$	Marshallese Language,English Language			mh	English Language	Republic,Presidential system,Representative democracy			
Vanuatu	/m/07z5n		VANUATU	NH	Port Vila				Penama Province,Pentecost Island,Shepherd Islands,Tafea Province,Ambrym,Malakula,Efate,Sanma Province,Shefa Province,Paama,Aoba/Maewo,Epi,Torba Province	Vanuatu vatu	French Language,English Language,Bislama Language			vu	Aneityum Language,Efate, North Language,Araki Language,Malekula Interior languages,Tanna, North Language,Mwotlap,Ambrym, North Language,South Vanuatu languages,Aulua Language,Northeast Vanuatu-Banks Islands languages,Central Vanuatu languages,English Language,Bislama Language,Ambrym, Southeast Language,French Language,Vatrata Language,Tanna, Southwest Language,Malekula Central languages,East Vanuatu languages,Malekula Coastal languages,Dakaka Language,Tanna languages,Epi languages	Parliamentary republic,Republic	/m/03k077l		678
West Bank	/m/082pc			WE						Jordanian dinar,Israeli new sheqel					Bedawi Arabic				
Tuvalu	/m/07fsv		TUVALU	TV	Funafuti				Nanumanga,Nukufetau,Nukulaelae,Niutao,Nui,Vaitupu,Nanumea,Funafuti	Tuvaluan dollar,Australian dollar	English Language,Tuvaluan Language			tv	Tuvaluan Language,Kiribati language,English Language	Constitutional monarchy,Representative democracy,Parliamentary system			688
Norfolk Island	/m/05cqm		NORFOLK ISLAND	NF	Kingston					Australian dollar	English Language,Norfuk language			nf					
Spanish Language	/m/06nm1																		
Singapore	/m/06t2t		SINGAPORE	SN	Singapore					Singapore dollar	Chinese language,English Language,Standard Mandarin,Tamil Language,Malay Language			sg	Tamil Language,English Language,Chinese language	Parliamentary republic			
San Marino	/m/06sff		SAN MARINO	SM	San Marino				Fiorentino,Borgo Maggiore,Chiesanuova,San Marino,Faetano,Acquaviva,Domagnano,Serravalle,Montegiardino	Euro,San Marinese lira	Italian Language			sm	Italian Language	Diarchy,Parliamentary republic		San Marinese lira	
Belgium	/m/0154j		BELGIUM	BE	City of Brussels,Brussels				East Flanders,Luxembourg,Walloon Brabant,Province of Brabant,Namur,Flanders,Limburg,Brussels,Hainaut,Liège,West Flanders,Antwerp,Flemish Brabant	Belgian franc,Euro,Dutch gulden	French Language,Dutch Language,German Language			be	Picard Language,French Language	Parliamentary system,Monarchy,Constitutional monarchy	/m/0d89jcn	Belgian franc,Luxembourgish franc	
Coral Sea Islands	/m/01p88			CR						Australian dollar									
Kenya	/m/019rg5		KENYA	KE	Nairobi				Rift Valley Province,Nyanza Province,Nairobi Province,North Eastern Province,Western Province,Central Province,Coast Province,Eastern Province	East African shilling,Kenya Shilling,Kenyan shilling	English Language,Swahili Language			ke	Maasai Language,Swahili Language,English Language	Semi-presidential system,Republic	/m/0d9h43k		
Majapahit	/m/015mb5																		
Sparta	/m/09472				Sparta														
Wallis and Futuna	/m/082nw		WALLIS AND FUTUNA	WF	Mata-Utu					CFP franc	Fakauvea,Futuna, East Language,French Language			wf				French franc	
Dutch Republic	/m/0dv0z				The Hague														
Saxony	/m/070zc																		
Burma	/m/04xn_			BM	Naypyidaw,Yangon				Tanintharyi Division,Yangon Division,Kayah State,Shan State,Bago Division,Ayeyarwady Division,Sagaing Division,Kachin State,Mon State,Mandalay Division,Magway Division,Kayin State,Chin State,Rakhine State	Myanma kyat	Burmese Language			mm	Tamil Language	Dictatorship,Military junta,Military dictatorship	/m/0d8ryj4	Indian rupee	
Ghana	/m/035dk		GHANA	GH	Accra				Volta Region,Upper East Region,Brong-Ahafo Region,Central Region,Western Region,Ashanti Region,Greater Accra Region,Northern Region,Eastern Region,Upper West Region	Ghanaian cedi	English Language			gh	Akan Language,Twi,Fula language,English Language,Éwé Language	Constitutional republic,Republic,Presidential system			
Hawaii	/m/03gh4																		
Johnston Atoll	/m/03__f			JQ															
Holy Roman Empire	/m/03gk2				Nuremberg,Berlin,Vienna,Rome										Latin Language,Slovenian language,Dutch Language,French Language,German Language,Italian Language,Czech Language				
Corsica	/m/0f0sbl																		
Togo	/m/07f5x		TOGO	TO	Lomé				Kara Region,Maritime Region,Plateaux Region,Centrale Region,Savanes Region	West African CFA franc,CFA franc	French Language			tg,to	Éwé Language,Fula language,French Language,Esperanto Language	Republic			
North Korea	/m/05b7q		"KOREA, DEMOCRATIC PEOPLE'S REPUBLIC OF"	KN	Pyongyang				Pyongyang,Kangwon-do,South Hamgyong,Rason,Nampo,Sonbong,Chagang,South Pyongan,North Hwanghae,Ryanggang,Kaesong,South Hwanghae,North Pyongan,North Hamgyong	North Korean won	Korean Language			kp	Korean Language	Socialist Republic,Communist state,Military dictatorship,Single-party state,Republic,Socialist state,Dictatorship	/m/0bb_kq0		
